{
"type": "FeatureCollection",
"name": "gps_raw",
"crs": { "type": "name", "properties": { "name": "urn:ogc:def:crs:OGC:1.3:CRS84" } },
"features": [
{ "type": "Feature", "properties": { "seq": 0, "ts": "2026-07-30T08:00:00", "source": "rover", "station_name": null }, "geometry": { "type": "Point", "coordinates": [ 105.850948950107707, 21.031000013547775 ] } },
{ "type": "Feature", "properties": { "seq": 1, "ts": "2026-07-30T08:00:02", "source": "rover", "station_name": null }, "geometry": { "type": "Point", "coordinates": [ 105.850943505799123, 21.0311413810395 ] } },
{ "type": "Feature", "properties": { "seq": 2, "ts": "2026-07-30T08:00:04", "source": "rover", "station_name": null }, "geometry": { "type": "Point", "coordinates": [ 105.85095574652712, 21.031275920404852 ] } },
{ "type": "Feature", "properties": { "seq": 3, "ts": "2026-07-30T08:00:06", "source": "rover", "station_name": null }, "geometry": { "type": "Point", "coordinates": [ 105.851004830958601, 21.031407201375337 ] } },
{ "type": "Feature", "properties": { "seq": 4, "ts": "2026-07-30T08:00:08", "source": "rover", "station_name": null }, "geometry": { "type": "Point", "coordinates": [ 105.851097040026559, 21.03151440571726 ] } },
{ "type": "Feature", "properties": { "seq": 5, "ts": "2026-07-30T08:00:10", "source": "rover", "station_name": null }, "geometry": { "type": "Point", "coordinates": [ 105.851198085753794, 21.03162151542455 ] } },
{ "type": "Feature", "properties": { "seq": 6, "ts": "2026-07-30T08:00:12", "source": "rover", "station_name": null }, "geometry": { "type": "Point", "coordinates": [ 105.851301305327596, 21.031726096879346 ] } },
{ "type": "Feature", "properties": { "seq": 7, "ts": "2026-07-30T08:00:14", "source": "rover", "station_name": null }, "geometry": { "type": "Point", "coordinates": [ 105.851422476816936, 21.03180413664494 ] } },
{ "type": "Feature", "properties": { "seq": 8, "ts": "2026-07-30T08:00:16", "source": "rover", "station_name": null }, "geometry": { "type": "Point", "coordinates": [ 105.851561485586117, 21.031854686850373 ] } },
{ "type": "Feature", "properties": { "seq": 9, "ts": "2026-07-30T08:00:18", "source": "rover", "station_name": null }, "geometry": { "type": "Point", "coordinates": [ 105.851712213737201, 21.031874166962556 ] } },
{ "type": "Feature", "properties": { "seq": 10, "ts": "2026-07-30T08:00:20", "source": "rover", "station_name": null }, "geometry": { "type": "Point", "coordinates": [ 105.8518596748915, 21.031884486002493 ] } },
{ "type": "Feature", "properties": { "seq": 11, "ts": "2026-07-30T08:00:22", "source": "rover", "station_name": null }, "geometry": { "type": "Point", "coordinates": [ 105.852012393901404, 21.031865624306068 ] } },
{ "type": "Feature", "properties": { "seq": 12, "ts": "2026-07-30T08:00:24", "source": "rover", "station_name": null }, "geometry": { "type": "Point", "coordinates": [ 105.852158838770549, 21.031845865763888 ] } },
{ "type": "Feature", "properties": { "seq": 13, "ts": "2026-07-30T08:00:26", "source": "rover", "station_name": null }, "geometry": { "type": "Point", "coordinates": [ 105.852309115723216, 21.03182763013114 ] } },
{ "type": "Feature", "properties": { "seq": 14, "ts": "2026-07-30T08:00:28", "source": "rover", "station_name": null }, "geometry": { "type": "Point", "coordinates": [ 105.852458268174558, 21.031810136157766 ] } },
{ "type": "Feature", "properties": { "seq": 15, "ts": "2026-07-30T08:00:30", "source": "rover", "station_name": null }, "geometry": { "type": "Point", "coordinates": [ 105.852612909795155, 21.031789839368681 ] } },
{ "type": "Feature", "properties": { "seq": 16, "ts": "2026-07-30T08:00:32", "source": "rover", "station_name": null }, "geometry": { "type": "Point", "coordinates": [ 105.85275964467823, 21.03176851401393 ] } },
{ "type": "Feature", "properties": { "seq": 17, "ts": "2026-07-30T08:00:34", "source": "rover", "station_name": null }, "geometry": { "type": "Point", "coordinates": [ 105.85290975807834, 21.031752818219299 ] } },
{ "type": "Feature", "properties": { "seq": 18, "ts": "2026-07-30T08:00:36", "source": "rover", "station_name": null }, "geometry": { "type": "Point", "coordinates": [ 105.853032133404383, 21.031678418212202 ] } },
{ "type": "Feature", "properties": { "seq": 19, "ts": "2026-07-30T08:00:38", "source": "rover", "station_name": null }, "geometry": { "type": "Point", "coordinates": [ 105.853131673002892, 21.031579271882272 ] } },
{ "type": "Feature", "properties": { "seq": 20, "ts": "2026-07-30T08:00:40", "source": "rover", "station_name": null }, "geometry": { "type": "Point", "coordinates": [ 105.853214429372031, 21.031463413234331 ] } },
{ "type": "Feature", "properties": { "seq": 21, "ts": "2026-07-30T08:00:42", "source": "rover", "station_name": null }, "geometry": { "type": "Point", "coordinates": [ 105.853288986233295, 21.031343859517388 ] } },
{ "type": "Feature", "properties": { "seq": 22, "ts": "2026-07-30T08:00:44", "source": "rover", "station_name": null }, "geometry": { "type": "Point", "coordinates": [ 105.853364537815949, 21.031223760269587 ] } },
{ "type": "Feature", "properties": { "seq": 23, "ts": "2026-07-30T08:00:46", "source": "rover", "station_name": null }, "geometry": { "type": "Point", "coordinates": [ 105.853440923355024, 21.031103057892086 ] } },
{ "type": "Feature", "properties": { "seq": 24, "ts": "2026-07-30T08:00:48", "source": "rover", "station_name": null }, "geometry": { "type": "Point", "coordinates": [ 105.853516423290912, 21.030981026481559 ] } },
{ "type": "Feature", "properties": { "seq": 25, "ts": "2026-07-30T08:00:50", "source": "rover", "station_name": null }, "geometry": { "type": "Point", "coordinates": [ 105.853590035669214, 21.030860570133271 ] } },
{ "type": "Feature", "properties": { "seq": 26, "ts": "2026-07-30T08:00:52", "source": "rover", "station_name": null }, "geometry": { "type": "Point", "coordinates": [ 105.8536619628713, 21.030739549012679 ] } },
{ "type": "Feature", "properties": { "seq": 27, "ts": "2026-07-30T08:00:54", "source": "rover", "station_name": null }, "geometry": { "type": "Point", "coordinates": [ 105.853742692599823, 21.030620696089095 ] } },
{ "type": "Feature", "properties": { "seq": 28, "ts": "2026-07-30T08:00:56", "source": "rover", "station_name": null }, "geometry": { "type": "Point", "coordinates": [ 105.853818615987009, 21.030505296201472 ] } },
{ "type": "Feature", "properties": { "seq": 29, "ts": "2026-07-30T08:00:58", "source": "rover", "station_name": null }, "geometry": { "type": "Point", "coordinates": [ 105.853863345006189, 21.030375695634085 ] } },
{ "type": "Feature", "properties": { "seq": 30, "ts": "2026-07-30T08:01:00", "source": "rover", "station_name": null }, "geometry": { "type": "Point", "coordinates": [ 105.853883346213237, 21.030238678312184 ] } },
{ "type": "Feature", "properties": { "seq": 31, "ts": "2026-07-30T08:01:02", "source": "rover", "station_name": null }, "geometry": { "type": "Point", "coordinates": [ 105.853877577642379, 21.030100608117429 ] } },
{ "type": "Feature", "properties": { "seq": 32, "ts": "2026-07-30T08:01:04", "source": "rover", "station_name": null }, "geometry": { "type": "Point", "coordinates": [ 105.853873510770853, 21.029963165099073 ] } },
{ "type": "Feature", "properties": { "seq": 33, "ts": "2026-07-30T08:01:06", "source": "rover", "station_name": null }, "geometry": { "type": "Point", "coordinates": [ 105.853866685487858, 21.029821794655525 ] } },
{ "type": "Feature", "properties": { "seq": 34, "ts": "2026-07-30T08:01:08", "source": "rover", "station_name": null }, "geometry": { "type": "Point", "coordinates": [ 105.853862693093731, 21.029682131559149 ] } },
{ "type": "Feature", "properties": { "seq": 35, "ts": "2026-07-30T08:01:10", "source": "rover", "station_name": null }, "geometry": { "type": "Point", "coordinates": [ 105.853852954557468, 21.02953934919509 ] } },
{ "type": "Feature", "properties": { "seq": 36, "ts": "2026-07-30T08:01:12", "source": "rover", "station_name": null }, "geometry": { "type": "Point", "coordinates": [ 105.853844030054319, 21.029401199163917 ] } },
{ "type": "Feature", "properties": { "seq": 37, "ts": "2026-07-30T08:01:14", "source": "rover", "station_name": null }, "geometry": { "type": "Point", "coordinates": [ 105.853839310465062, 21.029263086610825 ] } },
{ "type": "Feature", "properties": { "seq": 38, "ts": "2026-07-30T08:01:16", "source": "rover", "station_name": null }, "geometry": { "type": "Point", "coordinates": [ 105.853831159722901, 21.029124142413036 ] } },
{ "type": "Feature", "properties": { "seq": 39, "ts": "2026-07-30T08:01:18", "source": "rover", "station_name": null }, "geometry": { "type": "Point", "coordinates": [ 105.853823811764016, 21.028983668254817 ] } },
{ "type": "Feature", "properties": { "seq": 40, "ts": "2026-07-30T08:01:20", "source": "rover", "station_name": null }, "geometry": { "type": "Point", "coordinates": [ 105.85380326320454, 21.028844044222595 ] } },
{ "type": "Feature", "properties": { "seq": 41, "ts": "2026-07-30T08:01:22", "source": "rover", "station_name": null }, "geometry": { "type": "Point", "coordinates": [ 105.853779260863519, 21.028705023113872 ] } },
{ "type": "Feature", "properties": { "seq": 42, "ts": "2026-07-30T08:01:24", "source": "rover", "station_name": null }, "geometry": { "type": "Point", "coordinates": [ 105.853751954065388, 21.028568181414695 ] } },
{ "type": "Feature", "properties": { "seq": 43, "ts": "2026-07-30T08:01:26", "source": "rover", "station_name": null }, "geometry": { "type": "Point", "coordinates": [ 105.853728496967094, 21.02843002483619 ] } },
{ "type": "Feature", "properties": { "seq": 44, "ts": "2026-07-30T08:01:28", "source": "rover", "station_name": null }, "geometry": { "type": "Point", "coordinates": [ 105.853708410272986, 21.028292769811049 ] } },
{ "type": "Feature", "properties": { "seq": 45, "ts": "2026-07-30T08:01:30", "source": "rover", "station_name": null }, "geometry": { "type": "Point", "coordinates": [ 105.853689720795728, 21.028153985360724 ] } },
{ "type": "Feature", "properties": { "seq": 46, "ts": "2026-07-30T08:01:32", "source": "rover", "station_name": null }, "geometry": { "type": "Point", "coordinates": [ 105.853668593121768, 21.028015201808842 ] } },
{ "type": "Feature", "properties": { "seq": 47, "ts": "2026-07-30T08:01:34", "source": "rover", "station_name": null }, "geometry": { "type": "Point", "coordinates": [ 105.853643590025939, 21.02787299537593 ] } },
{ "type": "Feature", "properties": { "seq": 48, "ts": "2026-07-30T08:01:36", "source": "rover", "station_name": null }, "geometry": { "type": "Point", "coordinates": [ 105.853619858108914, 21.027731981714759 ] } },
{ "type": "Feature", "properties": { "seq": 49, "ts": "2026-07-30T08:01:38", "source": "rover", "station_name": null }, "geometry": { "type": "Point", "coordinates": [ 105.853600847753384, 21.027591057854814 ] } },
{ "type": "Feature", "properties": { "seq": 50, "ts": "2026-07-30T08:01:40", "source": "rover", "station_name": null }, "geometry": { "type": "Point", "coordinates": [ 105.853576775513062, 21.027456260183584 ] } },
{ "type": "Feature", "properties": { "seq": 51, "ts": "2026-07-30T08:01:42", "source": "rover", "station_name": null }, "geometry": { "type": "Point", "coordinates": [ 105.85355346862336, 21.02732000130435 ] } },
{ "type": "Feature", "properties": { "seq": 52, "ts": "2026-07-30T08:01:44", "source": "rover", "station_name": null }, "geometry": { "type": "Point", "coordinates": [ 105.853528587924089, 21.027181530475946 ] } },
{ "type": "Feature", "properties": { "seq": 53, "ts": "2026-07-30T08:01:46", "source": "rover", "station_name": null }, "geometry": { "type": "Point", "coordinates": [ 105.853502690556496, 21.027042198429832 ] } },
{ "type": "Feature", "properties": { "seq": 54, "ts": "2026-07-30T08:01:48", "source": "rover", "station_name": null }, "geometry": { "type": "Point", "coordinates": [ 105.853482280120474, 21.026899369173368 ] } },
{ "type": "Feature", "properties": { "seq": 55, "ts": "2026-07-30T08:01:50", "source": "rover", "station_name": null }, "geometry": { "type": "Point", "coordinates": [ 105.853460453791101, 21.026762185965083 ] } },
{ "type": "Feature", "properties": { "seq": 56, "ts": "2026-07-30T08:01:52", "source": "rover", "station_name": null }, "geometry": { "type": "Point", "coordinates": [ 105.853435770271915, 21.026620280341081 ] } },
{ "type": "Feature", "properties": { "seq": 57, "ts": "2026-07-30T08:01:54", "source": "rover", "station_name": null }, "geometry": { "type": "Point", "coordinates": [ 105.853411267323494, 21.02648085563311 ] } },
{ "type": "Feature", "properties": { "seq": 58, "ts": "2026-07-30T08:01:56", "source": "rover", "station_name": null }, "geometry": { "type": "Point", "coordinates": [ 105.853388354901099, 21.026342992009063 ] } },
{ "type": "Feature", "properties": { "seq": 59, "ts": "2026-07-30T08:01:58", "source": "rover", "station_name": null }, "geometry": { "type": "Point", "coordinates": [ 105.853369230429649, 21.026203933855694 ] } },
{ "type": "Feature", "properties": { "seq": 60, "ts": "2026-07-30T08:02:00", "source": "rover", "station_name": null }, "geometry": { "type": "Point", "coordinates": [ 105.853341811338879, 21.026066980024545 ] } },
{ "type": "Feature", "properties": { "seq": 61, "ts": "2026-07-30T08:02:02", "source": "rover", "station_name": null }, "geometry": { "type": "Point", "coordinates": [ 105.85331366271825, 21.025933647260743 ] } },
{ "type": "Feature", "properties": { "seq": 62, "ts": "2026-07-30T08:02:04", "source": "rover", "station_name": null }, "geometry": { "type": "Point", "coordinates": [ 105.853287838658716, 21.025797312318144 ] } },
{ "type": "Feature", "properties": { "seq": 63, "ts": "2026-07-30T08:02:06", "source": "rover", "station_name": null }, "geometry": { "type": "Point", "coordinates": [ 105.853263103742393, 21.025656916832773 ] } },
{ "type": "Feature", "properties": { "seq": 64, "ts": "2026-07-30T08:02:08", "source": "rover", "station_name": null }, "geometry": { "type": "Point", "coordinates": [ 105.853230847911462, 21.02551752863474 ] } },
{ "type": "Feature", "properties": { "seq": 65, "ts": "2026-07-30T08:02:10", "source": "rover", "station_name": null }, "geometry": { "type": "Point", "coordinates": [ 105.853138745516816, 21.025478893476766 ] } },
{ "type": "Feature", "properties": { "seq": 66, "ts": "2026-07-30T08:02:12", "source": "rover", "station_name": null }, "geometry": { "type": "Point", "coordinates": [ 105.852999538822246, 21.025525567664069 ] } },
{ "type": "Feature", "properties": { "seq": 67, "ts": "2026-07-30T08:02:14", "source": "rover", "station_name": null }, "geometry": { "type": "Point", "coordinates": [ 105.852852782435136, 21.025565419059035 ] } },
{ "type": "Feature", "properties": { "seq": 68, "ts": "2026-07-30T08:02:16", "source": "rover", "station_name": null }, "geometry": { "type": "Point", "coordinates": [ 105.852711288479014, 21.02560991195945 ] } },
{ "type": "Feature", "properties": { "seq": 69, "ts": "2026-07-30T08:02:18", "source": "rover", "station_name": null }, "geometry": { "type": "Point", "coordinates": [ 105.85257425140918, 21.025660728234001 ] } },
{ "type": "Feature", "properties": { "seq": 70, "ts": "2026-07-30T08:02:20", "source": "rover", "station_name": null }, "geometry": { "type": "Point", "coordinates": [ 105.852432678837332, 21.025700111975407 ] } },
{ "type": "Feature", "properties": { "seq": 71, "ts": "2026-07-30T08:02:22", "source": "rover", "station_name": null }, "geometry": { "type": "Point", "coordinates": [ 105.852284143984761, 21.025743840824173 ] } },
{ "type": "Feature", "properties": { "seq": 72, "ts": "2026-07-30T08:02:24", "source": "rover", "station_name": null }, "geometry": { "type": "Point", "coordinates": [ 105.852139560125153, 21.025786561711829 ] } },
{ "type": "Feature", "properties": { "seq": 73, "ts": "2026-07-30T08:02:26", "source": "rover", "station_name": null }, "geometry": { "type": "Point", "coordinates": [ 105.851995758715091, 21.025829847278008 ] } },
{ "type": "Feature", "properties": { "seq": 74, "ts": "2026-07-30T08:02:28", "source": "rover", "station_name": null }, "geometry": { "type": "Point", "coordinates": [ 105.851856577879204, 21.025874246906149 ] } },
{ "type": "Feature", "properties": { "seq": 75, "ts": "2026-07-30T08:02:30", "source": "rover", "station_name": null }, "geometry": { "type": "Point", "coordinates": [ 105.851713605605255, 21.025913970694351 ] } },
{ "type": "Feature", "properties": { "seq": 76, "ts": "2026-07-30T08:02:32", "source": "rover", "station_name": null }, "geometry": { "type": "Point", "coordinates": [ 105.851670929087817, 21.026024465311991 ] } },
{ "type": "Feature", "properties": { "seq": 77, "ts": "2026-07-30T08:02:34", "source": "rover", "station_name": null }, "geometry": { "type": "Point", "coordinates": [ 105.851666618016083, 21.026168420134461 ] } },
{ "type": "Feature", "properties": { "seq": 78, "ts": "2026-07-30T08:02:36", "source": "rover", "station_name": null }, "geometry": { "type": "Point", "coordinates": [ 105.85163156276343, 21.026306473011999 ] } },
{ "type": "Feature", "properties": { "seq": 79, "ts": "2026-07-30T08:02:38", "source": "rover", "station_name": null }, "geometry": { "type": "Point", "coordinates": [ 105.851594989113394, 21.026439203418143 ] } },
{ "type": "Feature", "properties": { "seq": 80, "ts": "2026-07-30T08:02:40", "source": "rover", "station_name": null }, "geometry": { "type": "Point", "coordinates": [ 105.851557471288345, 21.02657334002193 ] } },
{ "type": "Feature", "properties": { "seq": 81, "ts": "2026-07-30T08:02:42", "source": "rover", "station_name": null }, "geometry": { "type": "Point", "coordinates": [ 105.851528454938034, 21.026706585073711 ] } },
{ "type": "Feature", "properties": { "seq": 82, "ts": "2026-07-30T08:02:44", "source": "rover", "station_name": null }, "geometry": { "type": "Point", "coordinates": [ 105.851495255494541, 21.026840246164276 ] } },
{ "type": "Feature", "properties": { "seq": 83, "ts": "2026-07-30T08:02:46", "source": "rover", "station_name": null }, "geometry": { "type": "Point", "coordinates": [ 105.851463196343687, 21.026977200548824 ] } },
{ "type": "Feature", "properties": { "seq": 84, "ts": "2026-07-30T08:02:48", "source": "rover", "station_name": null }, "geometry": { "type": "Point", "coordinates": [ 105.851427860556669, 21.027112886116605 ] } },
{ "type": "Feature", "properties": { "seq": 85, "ts": "2026-07-30T08:02:50", "source": "rover", "station_name": null }, "geometry": { "type": "Point", "coordinates": [ 105.851390879938691, 21.027249973810211 ] } },
{ "type": "Feature", "properties": { "seq": 86, "ts": "2026-07-30T08:02:52", "source": "rover", "station_name": null }, "geometry": { "type": "Point", "coordinates": [ 105.851354366022861, 21.027382336379421 ] } },
{ "type": "Feature", "properties": { "seq": 87, "ts": "2026-07-30T08:02:54", "source": "rover", "station_name": null }, "geometry": { "type": "Point", "coordinates": [ 105.85131491499655, 21.027518720690725 ] } },
{ "type": "Feature", "properties": { "seq": 88, "ts": "2026-07-30T08:02:56", "source": "rover", "station_name": null }, "geometry": { "type": "Point", "coordinates": [ 105.851284038977937, 21.027654758215995 ] } },
{ "type": "Feature", "properties": { "seq": 89, "ts": "2026-07-30T08:02:58", "source": "rover", "station_name": null }, "geometry": { "type": "Point", "coordinates": [ 105.851223850748411, 21.027779573702048 ] } },
{ "type": "Feature", "properties": { "seq": 90, "ts": "2026-07-30T08:03:00", "source": "rover", "station_name": null }, "geometry": { "type": "Point", "coordinates": [ 105.851167041904276, 21.027895985672302 ] } },
{ "type": "Feature", "properties": { "seq": 91, "ts": "2026-07-30T08:03:02", "source": "rover", "station_name": null }, "geometry": { "type": "Point", "coordinates": [ 105.851193368556366, 21.028035687686174 ] } },
{ "type": "Feature", "properties": { "seq": 92, "ts": "2026-07-30T08:03:04", "source": "rover", "station_name": null }, "geometry": { "type": "Point", "coordinates": [ 105.851237887366523, 21.028173371692827 ] } },
{ "type": "Feature", "properties": { "seq": 93, "ts": "2026-07-30T08:03:06", "source": "rover", "station_name": null }, "geometry": { "type": "Point", "coordinates": [ 105.851286591221381, 21.028302923824352 ] } },
{ "type": "Feature", "properties": { "seq": 94, "ts": "2026-07-30T08:03:08", "source": "rover", "station_name": null }, "geometry": { "type": "Point", "coordinates": [ 105.851319511256264, 21.028442677669627 ] } },
{ "type": "Feature", "properties": { "seq": 95, "ts": "2026-07-30T08:03:10", "source": "rover", "station_name": null }, "geometry": { "type": "Point", "coordinates": [ 105.851355041641426, 21.028579201413681 ] } },
{ "type": "Feature", "properties": { "seq": 96, "ts": "2026-07-30T08:03:12", "source": "rover", "station_name": null }, "geometry": { "type": "Point", "coordinates": [ 105.85138100290942, 21.028720584618302 ] } },
{ "type": "Feature", "properties": { "seq": 97, "ts": "2026-07-30T08:03:14", "source": "rover", "station_name": null }, "geometry": { "type": "Point", "coordinates": [ 105.85139438620989, 21.028856417651408 ] } },
{ "type": "Feature", "properties": { "seq": 98, "ts": "2026-07-30T08:03:16", "source": "rover", "station_name": null }, "geometry": { "type": "Point", "coordinates": [ 105.851394822054985, 21.028994911454244 ] } },
{ "type": "Feature", "properties": { "seq": 99, "ts": "2026-07-30T08:03:18", "source": "rover", "station_name": null }, "geometry": { "type": "Point", "coordinates": [ 105.851380743740265, 21.029133693917217 ] } },
{ "type": "Feature", "properties": { "seq": 100, "ts": "2026-07-30T08:03:20", "source": "rover", "station_name": null }, "geometry": { "type": "Point", "coordinates": [ 105.851354615663084, 21.029275247286012 ] } },
{ "type": "Feature", "properties": { "seq": 101, "ts": "2026-07-30T08:03:22", "source": "rover", "station_name": null }, "geometry": { "type": "Point", "coordinates": [ 105.851321538497217, 21.029413079504923 ] } },
{ "type": "Feature", "properties": { "seq": 102, "ts": "2026-07-30T08:03:24", "source": "rover", "station_name": null }, "geometry": { "type": "Point", "coordinates": [ 105.85128275850721, 21.029549317477091 ] } },
{ "type": "Feature", "properties": { "seq": 103, "ts": "2026-07-30T08:03:26", "source": "rover", "station_name": null }, "geometry": { "type": "Point", "coordinates": [ 105.851247551577188, 21.029681934529091 ] } },
{ "type": "Feature", "properties": { "seq": 104, "ts": "2026-07-30T08:03:28", "source": "rover", "station_name": null }, "geometry": { "type": "Point", "coordinates": [ 105.851212289924703, 21.029817587781171 ] } },
{ "type": "Feature", "properties": { "seq": 105, "ts": "2026-07-30T08:03:30", "source": "rover", "station_name": null }, "geometry": { "type": "Point", "coordinates": [ 105.851181705129278, 21.029950222492189 ] } },
{ "type": "Feature", "properties": { "seq": 106, "ts": "2026-07-30T08:03:32", "source": "rover", "station_name": null }, "geometry": { "type": "Point", "coordinates": [ 105.851148837911865, 21.030085505917295 ] } },
{ "type": "Feature", "properties": { "seq": 107, "ts": "2026-07-30T08:03:34", "source": "rover", "station_name": null }, "geometry": { "type": "Point", "coordinates": [ 105.851115070236759, 21.030224535433224 ] } },
{ "type": "Feature", "properties": { "seq": 108, "ts": "2026-07-30T08:03:36", "source": "rover", "station_name": null }, "geometry": { "type": "Point", "coordinates": [ 105.851082490390851, 21.030364362623256 ] } },
{ "type": "Feature", "properties": { "seq": 109, "ts": "2026-07-30T08:03:38", "source": "rover", "station_name": null }, "geometry": { "type": "Point", "coordinates": [ 105.85104648517634, 21.030497751172064 ] } },
{ "type": "Feature", "properties": { "seq": 110, "ts": "2026-07-30T08:03:40", "source": "rover", "station_name": null }, "geometry": { "type": "Point", "coordinates": [ 105.85101407795527, 21.030635126365517 ] } },
{ "type": "Feature", "properties": { "seq": 111, "ts": "2026-07-30T08:03:42", "source": "rover", "station_name": null }, "geometry": { "type": "Point", "coordinates": [ 105.850982952225237, 21.03076890610269 ] } },
{ "type": "Feature", "properties": { "seq": 112, "ts": "2026-07-30T08:03:44", "source": "rover", "station_name": null }, "geometry": { "type": "Point", "coordinates": [ 105.850951984196982, 21.030906233099916 ] } },
{ "type": "Feature", "properties": { "seq": 0, "ts": "2026-07-30T08:00:00", "source": "base", "station_name": "base_station_1" }, "geometry": { "type": "Point", "coordinates": [ 105.85046963597101, 21.031709257995942 ] } },
{ "type": "Feature", "properties": { "seq": 1, "ts": "2026-07-30T08:00:02", "source": "base", "station_name": "base_station_1" }, "geometry": { "type": "Point", "coordinates": [ 105.850471452798828, 21.031711451913807 ] } },
{ "type": "Feature", "properties": { "seq": 2, "ts": "2026-07-30T08:00:04", "source": "base", "station_name": "base_station_1" }, "geometry": { "type": "Point", "coordinates": [ 105.850465993111143, 21.031707767960043 ] } },
{ "type": "Feature", "properties": { "seq": 3, "ts": "2026-07-30T08:00:06", "source": "base", "station_name": "base_station_1" }, "geometry": { "type": "Point", "coordinates": [ 105.85046621511853, 21.031707057821727 ] } },
{ "type": "Feature", "properties": { "seq": 4, "ts": "2026-07-30T08:00:08", "source": "base", "station_name": "base_station_1" }, "geometry": { "type": "Point", "coordinates": [ 105.850466148980047, 21.03170460009575 ] } },
{ "type": "Feature", "properties": { "seq": 5, "ts": "2026-07-30T08:00:10", "source": "base", "station_name": "base_station_1" }, "geometry": { "type": "Point", "coordinates": [ 105.850468332048649, 21.031706473356298 ] } },
{ "type": "Feature", "properties": { "seq": 6, "ts": "2026-07-30T08:00:12", "source": "base", "station_name": "base_station_1" }, "geometry": { "type": "Point", "coordinates": [ 105.850468632539275, 21.031709818898285 ] } },
{ "type": "Feature", "properties": { "seq": 7, "ts": "2026-07-30T08:00:14", "source": "base", "station_name": "base_station_1" }, "geometry": { "type": "Point", "coordinates": [ 105.850470130047341, 21.031707915263222 ] } },
{ "type": "Feature", "properties": { "seq": 8, "ts": "2026-07-30T08:00:16", "source": "base", "station_name": "base_station_1" }, "geometry": { "type": "Point", "coordinates": [ 105.850471446152412, 21.03170478576612 ] } },
{ "type": "Feature", "properties": { "seq": 9, "ts": "2026-07-30T08:00:18", "source": "base", "station_name": "base_station_1" }, "geometry": { "type": "Point", "coordinates": [ 105.850473835997107, 21.031704738779727 ] } },
{ "type": "Feature", "properties": { "seq": 10, "ts": "2026-07-30T08:00:20", "source": "base", "station_name": "base_station_1" }, "geometry": { "type": "Point", "coordinates": [ 105.850473170808243, 21.031703003519556 ] } },
{ "type": "Feature", "properties": { "seq": 11, "ts": "2026-07-30T08:00:22", "source": "base", "station_name": "base_station_1" }, "geometry": { "type": "Point", "coordinates": [ 105.850476871119085, 21.031702471374107 ] } },
{ "type": "Feature", "properties": { "seq": 12, "ts": "2026-07-30T08:00:24", "source": "base", "station_name": "base_station_1" }, "geometry": { "type": "Point", "coordinates": [ 105.850475713931203, 21.031701377675645 ] } },
{ "type": "Feature", "properties": { "seq": 13, "ts": "2026-07-30T08:00:26", "source": "base", "station_name": "base_station_1" }, "geometry": { "type": "Point", "coordinates": [ 105.850477056572117, 21.031703037220201 ] } },
{ "type": "Feature", "properties": { "seq": 14, "ts": "2026-07-30T08:00:28", "source": "base", "station_name": "base_station_1" }, "geometry": { "type": "Point", "coordinates": [ 105.850478295228029, 21.031703988333526 ] } },
{ "type": "Feature", "properties": { "seq": 15, "ts": "2026-07-30T08:00:30", "source": "base", "station_name": "base_station_1" }, "geometry": { "type": "Point", "coordinates": [ 105.850484445466648, 21.031702701965511 ] } },
{ "type": "Feature", "properties": { "seq": 16, "ts": "2026-07-30T08:00:32", "source": "base", "station_name": "base_station_1" }, "geometry": { "type": "Point", "coordinates": [ 105.85048292485412, 21.031700368134818 ] } },
{ "type": "Feature", "properties": { "seq": 17, "ts": "2026-07-30T08:00:34", "source": "base", "station_name": "base_station_1" }, "geometry": { "type": "Point", "coordinates": [ 105.850484582003631, 21.031703528428213 ] } },
{ "type": "Feature", "properties": { "seq": 18, "ts": "2026-07-30T08:00:36", "source": "base", "station_name": "base_station_1" }, "geometry": { "type": "Point", "coordinates": [ 105.850484226502772, 21.031701295509976 ] } },
{ "type": "Feature", "properties": { "seq": 19, "ts": "2026-07-30T08:00:38", "source": "base", "station_name": "base_station_1" }, "geometry": { "type": "Point", "coordinates": [ 105.850482228781473, 21.031703014870608 ] } },
{ "type": "Feature", "properties": { "seq": 20, "ts": "2026-07-30T08:00:40", "source": "base", "station_name": "base_station_1" }, "geometry": { "type": "Point", "coordinates": [ 105.85048411894762, 21.031704493414001 ] } },
{ "type": "Feature", "properties": { "seq": 21, "ts": "2026-07-30T08:00:42", "source": "base", "station_name": "base_station_1" }, "geometry": { "type": "Point", "coordinates": [ 105.850482197448528, 21.031705219309899 ] } },
{ "type": "Feature", "properties": { "seq": 22, "ts": "2026-07-30T08:00:44", "source": "base", "station_name": "base_station_1" }, "geometry": { "type": "Point", "coordinates": [ 105.850482243303404, 21.031705582133167 ] } },
{ "type": "Feature", "properties": { "seq": 23, "ts": "2026-07-30T08:00:46", "source": "base", "station_name": "base_station_1" }, "geometry": { "type": "Point", "coordinates": [ 105.850484730586203, 21.031705966228945 ] } },
{ "type": "Feature", "properties": { "seq": 24, "ts": "2026-07-30T08:00:48", "source": "base", "station_name": "base_station_1" }, "geometry": { "type": "Point", "coordinates": [ 105.850487339656055, 21.031706568260375 ] } },
{ "type": "Feature", "properties": { "seq": 25, "ts": "2026-07-30T08:00:50", "source": "base", "station_name": "base_station_1" }, "geometry": { "type": "Point", "coordinates": [ 105.850487780602876, 21.031707843880991 ] } },
{ "type": "Feature", "properties": { "seq": 26, "ts": "2026-07-30T08:00:52", "source": "base", "station_name": "base_station_1" }, "geometry": { "type": "Point", "coordinates": [ 105.850483137953788, 21.03170717393677 ] } },
{ "type": "Feature", "properties": { "seq": 27, "ts": "2026-07-30T08:00:54", "source": "base", "station_name": "base_station_1" }, "geometry": { "type": "Point", "coordinates": [ 105.850482807600471, 21.031705620726186 ] } },
{ "type": "Feature", "properties": { "seq": 28, "ts": "2026-07-30T08:00:56", "source": "base", "station_name": "base_station_1" }, "geometry": { "type": "Point", "coordinates": [ 105.850481462795898, 21.031709684889577 ] } },
{ "type": "Feature", "properties": { "seq": 29, "ts": "2026-07-30T08:00:58", "source": "base", "station_name": "base_station_1" }, "geometry": { "type": "Point", "coordinates": [ 105.85047878462872, 21.031712185001997 ] } },
{ "type": "Feature", "properties": { "seq": 30, "ts": "2026-07-30T08:01:00", "source": "base", "station_name": "base_station_1" }, "geometry": { "type": "Point", "coordinates": [ 105.850474241014112, 21.031711338202868 ] } },
{ "type": "Feature", "properties": { "seq": 31, "ts": "2026-07-30T08:01:02", "source": "base", "station_name": "base_station_1" }, "geometry": { "type": "Point", "coordinates": [ 105.850474853372972, 21.031713001907562 ] } },
{ "type": "Feature", "properties": { "seq": 32, "ts": "2026-07-30T08:01:04", "source": "base", "station_name": "base_station_1" }, "geometry": { "type": "Point", "coordinates": [ 105.850476894170185, 21.031714955373221 ] } },
{ "type": "Feature", "properties": { "seq": 33, "ts": "2026-07-30T08:01:06", "source": "base", "station_name": "base_station_1" }, "geometry": { "type": "Point", "coordinates": [ 105.850475926874395, 21.031714125756633 ] } },
{ "type": "Feature", "properties": { "seq": 34, "ts": "2026-07-30T08:01:08", "source": "base", "station_name": "base_station_1" }, "geometry": { "type": "Point", "coordinates": [ 105.850478038720468, 21.031713141921554 ] } },
{ "type": "Feature", "properties": { "seq": 35, "ts": "2026-07-30T08:01:10", "source": "base", "station_name": "base_station_1" }, "geometry": { "type": "Point", "coordinates": [ 105.850474783046124, 21.031710212303715 ] } },
{ "type": "Feature", "properties": { "seq": 36, "ts": "2026-07-30T08:01:12", "source": "base", "station_name": "base_station_1" }, "geometry": { "type": "Point", "coordinates": [ 105.85047214917914, 21.031711527623063 ] } },
{ "type": "Feature", "properties": { "seq": 37, "ts": "2026-07-30T08:01:14", "source": "base", "station_name": "base_station_1" }, "geometry": { "type": "Point", "coordinates": [ 105.85047258141212, 21.03171350071915 ] } },
{ "type": "Feature", "properties": { "seq": 38, "ts": "2026-07-30T08:01:16", "source": "base", "station_name": "base_station_1" }, "geometry": { "type": "Point", "coordinates": [ 105.85047112155415, 21.031714196718113 ] } },
{ "type": "Feature", "properties": { "seq": 39, "ts": "2026-07-30T08:01:18", "source": "base", "station_name": "base_station_1" }, "geometry": { "type": "Point", "coordinates": [ 105.850472800908364, 21.031712897047662 ] } },
{ "type": "Feature", "properties": { "seq": 40, "ts": "2026-07-30T08:01:20", "source": "base", "station_name": "base_station_1" }, "geometry": { "type": "Point", "coordinates": [ 105.850474094108634, 21.031711348248592 ] } },
{ "type": "Feature", "properties": { "seq": 41, "ts": "2026-07-30T08:01:22", "source": "base", "station_name": "base_station_1" }, "geometry": { "type": "Point", "coordinates": [ 105.850472825319869, 21.031710353362826 ] } },
{ "type": "Feature", "properties": { "seq": 42, "ts": "2026-07-30T08:01:24", "source": "base", "station_name": "base_station_1" }, "geometry": { "type": "Point", "coordinates": [ 105.85046957873783, 21.031711781739062 ] } },
{ "type": "Feature", "properties": { "seq": 43, "ts": "2026-07-30T08:01:26", "source": "base", "station_name": "base_station_1" }, "geometry": { "type": "Point", "coordinates": [ 105.850467864732394, 21.031711474639774 ] } },
{ "type": "Feature", "properties": { "seq": 44, "ts": "2026-07-30T08:01:28", "source": "base", "station_name": "base_station_1" }, "geometry": { "type": "Point", "coordinates": [ 105.85046939563891, 21.031712670120857 ] } },
{ "type": "Feature", "properties": { "seq": 45, "ts": "2026-07-30T08:01:30", "source": "base", "station_name": "base_station_1" }, "geometry": { "type": "Point", "coordinates": [ 105.85047168791688, 21.031712508626008 ] } },
{ "type": "Feature", "properties": { "seq": 46, "ts": "2026-07-30T08:01:32", "source": "base", "station_name": "base_station_1" }, "geometry": { "type": "Point", "coordinates": [ 105.850470368268944, 21.031712302774988 ] } },
{ "type": "Feature", "properties": { "seq": 47, "ts": "2026-07-30T08:01:34", "source": "base", "station_name": "base_station_1" }, "geometry": { "type": "Point", "coordinates": [ 105.8504655619153, 21.031708250997401 ] } },
{ "type": "Feature", "properties": { "seq": 48, "ts": "2026-07-30T08:01:36", "source": "base", "station_name": "base_station_1" }, "geometry": { "type": "Point", "coordinates": [ 105.850461826709648, 21.031705868662939 ] } },
{ "type": "Feature", "properties": { "seq": 49, "ts": "2026-07-30T08:01:38", "source": "base", "station_name": "base_station_1" }, "geometry": { "type": "Point", "coordinates": [ 105.850462904840199, 21.031703389826607 ] } },
{ "type": "Feature", "properties": { "seq": 50, "ts": "2026-07-30T08:01:40", "source": "base", "station_name": "base_station_1" }, "geometry": { "type": "Point", "coordinates": [ 105.850461817571698, 21.031707183941197 ] } },
{ "type": "Feature", "properties": { "seq": 51, "ts": "2026-07-30T08:01:42", "source": "base", "station_name": "base_station_1" }, "geometry": { "type": "Point", "coordinates": [ 105.850460724210791, 21.031708765195649 ] } },
{ "type": "Feature", "properties": { "seq": 52, "ts": "2026-07-30T08:01:44", "source": "base", "station_name": "base_station_1" }, "geometry": { "type": "Point", "coordinates": [ 105.850457896802894, 21.031708091468971 ] } },
{ "type": "Feature", "properties": { "seq": 53, "ts": "2026-07-30T08:01:46", "source": "base", "station_name": "base_station_1" }, "geometry": { "type": "Point", "coordinates": [ 105.850455054647952, 21.031707212672394 ] } },
{ "type": "Feature", "properties": { "seq": 54, "ts": "2026-07-30T08:01:48", "source": "base", "station_name": "base_station_1" }, "geometry": { "type": "Point", "coordinates": [ 105.850457681113099, 21.031702738710081 ] } },
{ "type": "Feature", "properties": { "seq": 55, "ts": "2026-07-30T08:01:50", "source": "base", "station_name": "base_station_1" }, "geometry": { "type": "Point", "coordinates": [ 105.850458961217157, 21.031703177943996 ] } },
{ "type": "Feature", "properties": { "seq": 56, "ts": "2026-07-30T08:01:52", "source": "base", "station_name": "base_station_1" }, "geometry": { "type": "Point", "coordinates": [ 105.850457388685442, 21.031699538265723 ] } },
{ "type": "Feature", "properties": { "seq": 57, "ts": "2026-07-30T08:01:54", "source": "base", "station_name": "base_station_1" }, "geometry": { "type": "Point", "coordinates": [ 105.850457383369687, 21.031697851532599 ] } },
{ "type": "Feature", "properties": { "seq": 58, "ts": "2026-07-30T08:01:56", "source": "base", "station_name": "base_station_1" }, "geometry": { "type": "Point", "coordinates": [ 105.850458192552082, 21.031698058661291 ] } },
{ "type": "Feature", "properties": { "seq": 59, "ts": "2026-07-30T08:01:58", "source": "base", "station_name": "base_station_1" }, "geometry": { "type": "Point", "coordinates": [ 105.850462428499796, 21.031697342459861 ] } },
{ "type": "Feature", "properties": { "seq": 60, "ts": "2026-07-30T08:02:00", "source": "base", "station_name": "base_station_1" }, "geometry": { "type": "Point", "coordinates": [ 105.850459804824098, 21.03169769121379 ] } },
{ "type": "Feature", "properties": { "seq": 61, "ts": "2026-07-30T08:02:02", "source": "base", "station_name": "base_station_1" }, "geometry": { "type": "Point", "coordinates": [ 105.850460446369098, 21.031701271720127 ] } },
{ "type": "Feature", "properties": { "seq": 62, "ts": "2026-07-30T08:02:04", "source": "base", "station_name": "base_station_1" }, "geometry": { "type": "Point", "coordinates": [ 105.850463086119888, 21.03170271418599 ] } },
{ "type": "Feature", "properties": { "seq": 63, "ts": "2026-07-30T08:02:06", "source": "base", "station_name": "base_station_1" }, "geometry": { "type": "Point", "coordinates": [ 105.850466985552373, 21.031699312759638 ] } },
{ "type": "Feature", "properties": { "seq": 64, "ts": "2026-07-30T08:02:08", "source": "base", "station_name": "base_station_1" }, "geometry": { "type": "Point", "coordinates": [ 105.85046470764523, 21.031696538080674 ] } },
{ "type": "Feature", "properties": { "seq": 65, "ts": "2026-07-30T08:02:10", "source": "base", "station_name": "base_station_1" }, "geometry": { "type": "Point", "coordinates": [ 105.850463968494054, 21.031692825540574 ] } },
{ "type": "Feature", "properties": { "seq": 66, "ts": "2026-07-30T08:02:12", "source": "base", "station_name": "base_station_1" }, "geometry": { "type": "Point", "coordinates": [ 105.850465995861143, 21.031692767712162 ] } },
{ "type": "Feature", "properties": { "seq": 67, "ts": "2026-07-30T08:02:14", "source": "base", "station_name": "base_station_1" }, "geometry": { "type": "Point", "coordinates": [ 105.850461367350249, 21.031689525941218 ] } },
{ "type": "Feature", "properties": { "seq": 68, "ts": "2026-07-30T08:02:16", "source": "base", "station_name": "base_station_1" }, "geometry": { "type": "Point", "coordinates": [ 105.85046255959216, 21.031692234139559 ] } },
{ "type": "Feature", "properties": { "seq": 69, "ts": "2026-07-30T08:02:18", "source": "base", "station_name": "base_station_1" }, "geometry": { "type": "Point", "coordinates": [ 105.850468086764863, 21.031699858281048 ] } },
{ "type": "Feature", "properties": { "seq": 70, "ts": "2026-07-30T08:02:20", "source": "base", "station_name": "base_station_1" }, "geometry": { "type": "Point", "coordinates": [ 105.850469851729542, 21.031696823879511 ] } },
{ "type": "Feature", "properties": { "seq": 71, "ts": "2026-07-30T08:02:22", "source": "base", "station_name": "base_station_1" }, "geometry": { "type": "Point", "coordinates": [ 105.85046310506317, 21.031697805170321 ] } },
{ "type": "Feature", "properties": { "seq": 72, "ts": "2026-07-30T08:02:24", "source": "base", "station_name": "base_station_1" }, "geometry": { "type": "Point", "coordinates": [ 105.850460899439156, 21.031696913772073 ] } },
{ "type": "Feature", "properties": { "seq": 73, "ts": "2026-07-30T08:02:26", "source": "base", "station_name": "base_station_1" }, "geometry": { "type": "Point", "coordinates": [ 105.850459274271174, 21.031696072726454 ] } },
{ "type": "Feature", "properties": { "seq": 74, "ts": "2026-07-30T08:02:28", "source": "base", "station_name": "base_station_1" }, "geometry": { "type": "Point", "coordinates": [ 105.850462407958602, 21.031696699097925 ] } },
{ "type": "Feature", "properties": { "seq": 75, "ts": "2026-07-30T08:02:30", "source": "base", "station_name": "base_station_1" }, "geometry": { "type": "Point", "coordinates": [ 105.850462080102545, 21.031693884594706 ] } },
{ "type": "Feature", "properties": { "seq": 76, "ts": "2026-07-30T08:02:32", "source": "base", "station_name": "base_station_1" }, "geometry": { "type": "Point", "coordinates": [ 105.850456871409719, 21.031692803712922 ] } },
{ "type": "Feature", "properties": { "seq": 77, "ts": "2026-07-30T08:02:34", "source": "base", "station_name": "base_station_1" }, "geometry": { "type": "Point", "coordinates": [ 105.85045701259466, 21.031697578101671 ] } },
{ "type": "Feature", "properties": { "seq": 78, "ts": "2026-07-30T08:02:36", "source": "base", "station_name": "base_station_1" }, "geometry": { "type": "Point", "coordinates": [ 105.850456932648257, 21.031700258429982 ] } },
{ "type": "Feature", "properties": { "seq": 79, "ts": "2026-07-30T08:02:38", "source": "base", "station_name": "base_station_1" }, "geometry": { "type": "Point", "coordinates": [ 105.850455598052946, 21.031696998653373 ] } },
{ "type": "Feature", "properties": { "seq": 80, "ts": "2026-07-30T08:02:40", "source": "base", "station_name": "base_station_1" }, "geometry": { "type": "Point", "coordinates": [ 105.850452725989399, 21.03169508545685 ] } },
{ "type": "Feature", "properties": { "seq": 81, "ts": "2026-07-30T08:02:42", "source": "base", "station_name": "base_station_1" }, "geometry": { "type": "Point", "coordinates": [ 105.850458974997082, 21.031692515446334 ] } },
{ "type": "Feature", "properties": { "seq": 82, "ts": "2026-07-30T08:02:44", "source": "base", "station_name": "base_station_1" }, "geometry": { "type": "Point", "coordinates": [ 105.850461675910083, 21.031690330021245 ] } },
{ "type": "Feature", "properties": { "seq": 83, "ts": "2026-07-30T08:02:46", "source": "base", "station_name": "base_station_1" }, "geometry": { "type": "Point", "coordinates": [ 105.850464116865325, 21.03169157976663 ] } },
{ "type": "Feature", "properties": { "seq": 84, "ts": "2026-07-30T08:02:48", "source": "base", "station_name": "base_station_1" }, "geometry": { "type": "Point", "coordinates": [ 105.850463695946175, 21.031691214964219 ] } },
{ "type": "Feature", "properties": { "seq": 85, "ts": "2026-07-30T08:02:50", "source": "base", "station_name": "base_station_1" }, "geometry": { "type": "Point", "coordinates": [ 105.850461948406092, 21.03169231499259 ] } },
{ "type": "Feature", "properties": { "seq": 86, "ts": "2026-07-30T08:02:52", "source": "base", "station_name": "base_station_1" }, "geometry": { "type": "Point", "coordinates": [ 105.850460655081278, 21.031689015083046 ] } },
{ "type": "Feature", "properties": { "seq": 87, "ts": "2026-07-30T08:02:54", "source": "base", "station_name": "base_station_1" }, "geometry": { "type": "Point", "coordinates": [ 105.850456800527795, 21.031689844774789 ] } },
{ "type": "Feature", "properties": { "seq": 88, "ts": "2026-07-30T08:02:56", "source": "base", "station_name": "base_station_1" }, "geometry": { "type": "Point", "coordinates": [ 105.850461236720079, 21.031689574028078 ] } },
{ "type": "Feature", "properties": { "seq": 89, "ts": "2026-07-30T08:02:58", "source": "base", "station_name": "base_station_1" }, "geometry": { "type": "Point", "coordinates": [ 105.850461414017786, 21.031691244502127 ] } },
{ "type": "Feature", "properties": { "seq": 90, "ts": "2026-07-30T08:03:00", "source": "base", "station_name": "base_station_1" }, "geometry": { "type": "Point", "coordinates": [ 105.85046479502769, 21.031691011580346 ] } },
{ "type": "Feature", "properties": { "seq": 91, "ts": "2026-07-30T08:03:02", "source": "base", "station_name": "base_station_1" }, "geometry": { "type": "Point", "coordinates": [ 105.850463645678602, 21.031694314143714 ] } },
{ "type": "Feature", "properties": { "seq": 92, "ts": "2026-07-30T08:03:04", "source": "base", "station_name": "base_station_1" }, "geometry": { "type": "Point", "coordinates": [ 105.850464929421932, 21.031698320863317 ] } },
{ "type": "Feature", "properties": { "seq": 93, "ts": "2026-07-30T08:03:06", "source": "base", "station_name": "base_station_1" }, "geometry": { "type": "Point", "coordinates": [ 105.850465589339478, 21.031695294650127 ] } },
{ "type": "Feature", "properties": { "seq": 94, "ts": "2026-07-30T08:03:08", "source": "base", "station_name": "base_station_1" }, "geometry": { "type": "Point", "coordinates": [ 105.850461266042799, 21.031699822616357 ] } },
{ "type": "Feature", "properties": { "seq": 95, "ts": "2026-07-30T08:03:10", "source": "base", "station_name": "base_station_1" }, "geometry": { "type": "Point", "coordinates": [ 105.850466921428762, 21.031699212479367 ] } },
{ "type": "Feature", "properties": { "seq": 96, "ts": "2026-07-30T08:03:12", "source": "base", "station_name": "base_station_1" }, "geometry": { "type": "Point", "coordinates": [ 105.850465377388716, 21.031703124658076 ] } },
{ "type": "Feature", "properties": { "seq": 97, "ts": "2026-07-30T08:03:14", "source": "base", "station_name": "base_station_1" }, "geometry": { "type": "Point", "coordinates": [ 105.850462349422074, 21.031700427611984 ] } },
{ "type": "Feature", "properties": { "seq": 98, "ts": "2026-07-30T08:03:16", "source": "base", "station_name": "base_station_1" }, "geometry": { "type": "Point", "coordinates": [ 105.850464115162438, 21.031699591390353 ] } },
{ "type": "Feature", "properties": { "seq": 99, "ts": "2026-07-30T08:03:18", "source": "base", "station_name": "base_station_1" }, "geometry": { "type": "Point", "coordinates": [ 105.850464422075959, 21.031699185932858 ] } },
{ "type": "Feature", "properties": { "seq": 100, "ts": "2026-07-30T08:03:20", "source": "base", "station_name": "base_station_1" }, "geometry": { "type": "Point", "coordinates": [ 105.85046538267683, 21.031702828082732 ] } },
{ "type": "Feature", "properties": { "seq": 101, "ts": "2026-07-30T08:03:22", "source": "base", "station_name": "base_station_1" }, "geometry": { "type": "Point", "coordinates": [ 105.850465447571111, 21.031704830287214 ] } },
{ "type": "Feature", "properties": { "seq": 102, "ts": "2026-07-30T08:03:24", "source": "base", "station_name": "base_station_1" }, "geometry": { "type": "Point", "coordinates": [ 105.850459247793012, 21.031704703587796 ] } },
{ "type": "Feature", "properties": { "seq": 103, "ts": "2026-07-30T08:03:26", "source": "base", "station_name": "base_station_1" }, "geometry": { "type": "Point", "coordinates": [ 105.850457194843884, 21.0317013197471 ] } },
{ "type": "Feature", "properties": { "seq": 104, "ts": "2026-07-30T08:03:28", "source": "base", "station_name": "base_station_1" }, "geometry": { "type": "Point", "coordinates": [ 105.850454095904311, 21.031700484953188 ] } },
{ "type": "Feature", "properties": { "seq": 105, "ts": "2026-07-30T08:03:30", "source": "base", "station_name": "base_station_1" }, "geometry": { "type": "Point", "coordinates": [ 105.850456871227919, 21.031696817249163 ] } },
{ "type": "Feature", "properties": { "seq": 106, "ts": "2026-07-30T08:03:32", "source": "base", "station_name": "base_station_1" }, "geometry": { "type": "Point", "coordinates": [ 105.850457108790209, 21.031695257391597 ] } },
{ "type": "Feature", "properties": { "seq": 107, "ts": "2026-07-30T08:03:34", "source": "base", "station_name": "base_station_1" }, "geometry": { "type": "Point", "coordinates": [ 105.850455885256579, 21.031698376762819 ] } },
{ "type": "Feature", "properties": { "seq": 108, "ts": "2026-07-30T08:03:36", "source": "base", "station_name": "base_station_1" }, "geometry": { "type": "Point", "coordinates": [ 105.850457666522701, 21.031701442268329 ] } },
{ "type": "Feature", "properties": { "seq": 109, "ts": "2026-07-30T08:03:38", "source": "base", "station_name": "base_station_1" }, "geometry": { "type": "Point", "coordinates": [ 105.850457464340593, 21.031700069613279 ] } },
{ "type": "Feature", "properties": { "seq": 110, "ts": "2026-07-30T08:03:40", "source": "base", "station_name": "base_station_1" }, "geometry": { "type": "Point", "coordinates": [ 105.850456531745195, 21.031700444391685 ] } },
{ "type": "Feature", "properties": { "seq": 111, "ts": "2026-07-30T08:03:42", "source": "base", "station_name": "base_station_1" }, "geometry": { "type": "Point", "coordinates": [ 105.850457324772478, 21.031697802307864 ] } },
{ "type": "Feature", "properties": { "seq": 112, "ts": "2026-07-30T08:03:44", "source": "base", "station_name": "base_station_1" }, "geometry": { "type": "Point", "coordinates": [ 105.850457887282602, 21.031698430898647 ] } }
]
}
