{
"type": "FeatureCollection",
"name": "gps_corrected",
"crs": { "type": "name", "properties": { "name": "urn:ogc:def:crs:OGC:1.3:CRS84" } },
"features": [
{ "type": "Feature", "properties": { "seq": 0, "ts": "2026-07-30T08:00:00", "used_base": "base_station_1", "error_m": 0.012054692122409703, "error_raw_m": 0.30890869761276579 }, "geometry": { "type": "Point", "coordinates": [ 105.85094770916065, 21.031002463149459 ] } },
{ "type": "Feature", "properties": { "seq": 1, "ts": "2026-07-30T08:00:02", "used_base": "base_station_1", "error_m": 0.020428568112053885, "error_raw_m": 0.30159095934926861 }, "geometry": { "type": "Point", "coordinates": [ 105.850940448308336, 21.031141637318349 ] } },
{ "type": "Feature", "properties": { "seq": 2, "ts": "2026-07-30T08:00:04", "used_base": "base_station_1", "error_m": 0.050958305223369305, "error_raw_m": 0.52507063452867775 }, "geometry": { "type": "Point", "coordinates": [ 105.850958148925386, 21.031279859840954 ] } },
{ "type": "Feature", "properties": { "seq": 3, "ts": "2026-07-30T08:00:06", "used_base": "base_station_1", "error_m": 0.024606045688824654, "error_raw_m": 0.53993624065829815 }, "geometry": { "type": "Point", "coordinates": [ 105.851007010242043, 21.031411851002421 ] } },
{ "type": "Feature", "properties": { "seq": 4, "ts": "2026-07-30T08:00:08", "used_base": "base_station_1", "error_m": 0.021129654248574676, "error_raw_m": 0.82323608008684257 }, "geometry": { "type": "Point", "coordinates": [ 105.851099286266887, 21.031521514278545 ] } },
{ "type": "Feature", "properties": { "seq": 5, "ts": "2026-07-30T08:00:10", "used_base": "base_station_1", "error_m": 0.039780025261410563, "error_raw_m": 0.54137758438256445 }, "geometry": { "type": "Point", "coordinates": [ 105.851198148055886, 21.031626749511876 ] } },
{ "type": "Feature", "properties": { "seq": 6, "ts": "2026-07-30T08:00:12", "used_base": "base_station_1", "error_m": 0.001825611417905053, "error_raw_m": 0.21206161754603459 }, "geometry": { "type": "Point", "coordinates": [ 105.851301067723867, 21.031727985524732 ] } },
{ "type": "Feature", "properties": { "seq": 7, "ts": "2026-07-30T08:00:14", "used_base": "base_station_1", "error_m": 0.042463125371072108, "error_raw_m": 0.490183750839701 }, "geometry": { "type": "Point", "coordinates": [ 105.851420742358144, 21.031807927097088 ] } },
{ "type": "Feature", "properties": { "seq": 8, "ts": "2026-07-30T08:00:16", "used_base": "base_station_1", "error_m": 0.058266854004309837, "error_raw_m": 0.81827349903626678 }, "geometry": { "type": "Point", "coordinates": [ 105.851558433230736, 21.031861608033314 ] } },
{ "type": "Feature", "properties": { "seq": 9, "ts": "2026-07-30T08:00:18", "used_base": "base_station_1", "error_m": 0.039529416621184033, "error_raw_m": 0.99193436500207588 }, "geometry": { "type": "Point", "coordinates": [ 105.8517067695484, 21.031881134839512 ] } },
{ "type": "Feature", "properties": { "seq": 10, "ts": "2026-07-30T08:00:20", "used_base": "base_station_1", "error_m": 0.036844552453536447, "error_raw_m": 1.046945396312388 }, "geometry": { "type": "Point", "coordinates": [ 105.851854897541727, 21.031893189997561 ] } },
{ "type": "Feature", "properties": { "seq": 11, "ts": "2026-07-30T08:00:22", "used_base": "base_station_1", "error_m": 0.048835477408864819, "error_raw_m": 1.3922300731145933 }, "geometry": { "type": "Point", "coordinates": [ 105.852003919252979, 21.031874860377705 ] } },
{ "type": "Feature", "properties": { "seq": 12, "ts": "2026-07-30T08:00:24", "used_base": "base_station_1", "error_m": 0.041357925838773825, "error_raw_m": 1.3326584234845038 }, "geometry": { "type": "Point", "coordinates": [ 105.852151517873068, 21.031856195811493 ] } },
{ "type": "Feature", "properties": { "seq": 13, "ts": "2026-07-30T08:00:26", "used_base": "base_station_1", "error_m": 0.079791783765347804, "error_raw_m": 1.3916940768250665 }, "geometry": { "type": "Point", "coordinates": [ 105.852300455835604, 21.031836299044638 ] } },
{ "type": "Feature", "properties": { "seq": 14, "ts": "2026-07-30T08:00:28", "used_base": "base_station_1", "error_m": 0.016135599360032272, "error_raw_m": 1.3385426409548828 }, "geometry": { "type": "Point", "coordinates": [ 105.852448365910703, 21.03181785672162 ] } },
{ "type": "Feature", "properties": { "seq": 15, "ts": "2026-07-30T08:00:30", "used_base": "base_station_1", "error_m": 0.020181135477372332, "error_raw_m": 1.9587884633783519 }, "geometry": { "type": "Point", "coordinates": [ 105.852596858654991, 21.031798846633745 ] } },
{ "type": "Feature", "properties": { "seq": 16, "ts": "2026-07-30T08:00:32", "used_base": "base_station_1", "error_m": 0.02397344548468338, "error_raw_m": 1.9776725325426625 }, "geometry": { "type": "Point", "coordinates": [ 105.852745114639475, 21.031779855305029 ] } },
{ "type": "Feature", "properties": { "seq": 17, "ts": "2026-07-30T08:00:34", "used_base": "base_station_1", "error_m": 0.017488850173852998, "error_raw_m": 1.9263964161179028 }, "geometry": { "type": "Point", "coordinates": [ 105.852893568364465, 21.031760997739024 ] } },
{ "type": "Feature", "properties": { "seq": 18, "ts": "2026-07-30T08:00:36", "used_base": "base_station_1", "error_m": 0.032854671684139393, "error_raw_m": 2.0404275205702884 }, "geometry": { "type": "Point", "coordinates": [ 105.85301630120135, 21.031688827764007 ] } },
{ "type": "Feature", "properties": { "seq": 19, "ts": "2026-07-30T08:00:38", "used_base": "base_station_1", "error_m": 0.018258853538562003, "error_raw_m": 1.7125036013148061 }, "geometry": { "type": "Point", "coordinates": [ 105.853117834921235, 21.031587966686818 ] } },
{ "type": "Feature", "properties": { "seq": 20, "ts": "2026-07-30T08:00:40", "used_base": "base_station_1", "error_m": 0.0090404354865236541, "error_raw_m": 1.8275357775650765 }, "geometry": { "type": "Point", "coordinates": [ 105.853198704277617, 21.031470625176933 ] } },
{ "type": "Feature", "properties": { "seq": 21, "ts": "2026-07-30T08:00:42", "used_base": "base_station_1", "error_m": 0.019740299284510345, "error_raw_m": 1.6189195003058565 }, "geometry": { "type": "Point", "coordinates": [ 105.853275183356914, 21.031350351168282 ] } },
{ "type": "Feature", "properties": { "seq": 22, "ts": "2026-07-30T08:00:44", "used_base": "base_station_1", "error_m": 0.024916076447353473, "error_raw_m": 1.6055983427994458 }, "geometry": { "type": "Point", "coordinates": [ 105.853350682647701, 21.031229882022437 ] } },
{ "type": "Feature", "properties": { "seq": 23, "ts": "2026-07-30T08:00:46", "used_base": "base_station_1", "error_m": 0.081416076635257462, "error_raw_m": 1.8251367526538529 }, "geometry": { "type": "Point", "coordinates": [ 105.853424584854423, 21.031108803841512 ] } },
{ "type": "Feature", "properties": { "seq": 24, "ts": "2026-07-30T08:00:48", "used_base": "base_station_1", "error_m": 0.010820654362700639, "error_raw_m": 2.0560677606541646 }, "geometry": { "type": "Point", "coordinates": [ 105.853497479403288, 21.030986168536373 ] } },
{ "type": "Feature", "properties": { "seq": 25, "ts": "2026-07-30T08:00:50", "used_base": "base_station_1", "error_m": 0.0075311547282411037, "error_raw_m": 2.0570014468886209 }, "geometry": { "type": "Point", "coordinates": [ 105.853570646230295, 21.03086443095885 ] } },
{ "type": "Feature", "properties": { "seq": 26, "ts": "2026-07-30T08:00:52", "used_base": "base_station_1", "error_m": 0.084819671908913957, "error_raw_m": 1.686843568703583 }, "geometry": { "type": "Point", "coordinates": [ 105.853647221280113, 21.030744083257158 ] } },
{ "type": "Feature", "properties": { "seq": 27, "ts": "2026-07-30T08:00:54", "used_base": "base_station_1", "error_m": 0.058279621907003865, "error_raw_m": 1.6254508439619522 }, "geometry": { "type": "Point", "coordinates": [ 105.853728281804123, 21.030626782749327 ] } },
{ "type": "Feature", "properties": { "seq": 28, "ts": "2026-07-30T08:00:56", "used_base": "base_station_1", "error_m": 0.029843945328596504, "error_raw_m": 1.4057429091135312 }, "geometry": { "type": "Point", "coordinates": [ 105.853805549012378, 21.030507319825606 ] } },
{ "type": "Feature", "properties": { "seq": 29, "ts": "2026-07-30T08:00:58", "used_base": "base_station_1", "error_m": 0.0098343129603368495, "error_raw_m": 1.0897998878684565 }, "geometry": { "type": "Point", "coordinates": [ 105.853852958003529, 21.030375221339909 ] } },
{ "type": "Feature", "properties": { "seq": 30, "ts": "2026-07-30T08:01:00", "used_base": "base_station_1", "error_m": 0.0032603637934183879, "error_raw_m": 0.61202393467980321 }, "geometry": { "type": "Point", "coordinates": [ 105.853877493810145, 21.030239040073717 ] } },
{ "type": "Feature", "properties": { "seq": 31, "ts": "2026-07-30T08:01:02", "used_base": "base_station_1", "error_m": 0.022895900436013819, "error_raw_m": 0.66322177959228101 }, "geometry": { "type": "Point", "coordinates": [ 105.853871122822071, 21.030099318305108 ] } },
{ "type": "Feature", "properties": { "seq": 32, "ts": "2026-07-30T08:01:04", "used_base": "base_station_1", "error_m": 0.024745057872464411, "error_raw_m": 0.94326917192500626 }, "geometry": { "type": "Point", "coordinates": [ 105.853865007305004, 21.029959910883086 ] } },
{ "type": "Feature", "properties": { "seq": 33, "ts": "2026-07-30T08:01:06", "used_base": "base_station_1", "error_m": 0.084320235342734084, "error_raw_m": 0.81472178519454819 }, "geometry": { "type": "Point", "coordinates": [ 105.853859153735627, 21.029819380228385 ] } },
{ "type": "Feature", "properties": { "seq": 34, "ts": "2026-07-30T08:01:08", "used_base": "base_station_1", "error_m": 0.026455622445529944, "error_raw_m": 1.0327570722759358 }, "geometry": { "type": "Point", "coordinates": [ 105.853853056375982, 21.029680699473072 ] } },
{ "type": "Feature", "properties": { "seq": 35, "ts": "2026-07-30T08:01:10", "used_base": "base_station_1", "error_m": 0.021330700591777222, "error_raw_m": 0.66488802190357132 }, "geometry": { "type": "Point", "coordinates": [ 105.853846564764936, 21.029540841325581 ] } },
{ "type": "Feature", "properties": { "seq": 36, "ts": "2026-07-30T08:01:12", "used_base": "base_station_1", "error_m": 0.065026823030647468, "error_raw_m": 0.32705638706774726 }, "geometry": { "type": "Point", "coordinates": [ 105.853840275645538, 21.029401378176331 ] } },
{ "type": "Feature", "properties": { "seq": 37, "ts": "2026-07-30T08:01:14", "used_base": "base_station_1", "error_m": 0.032783092064598639, "error_raw_m": 0.4702824080865094 }, "geometry": { "type": "Point", "coordinates": [ 105.853835119472919, 21.029261301924571 ] } },
{ "type": "Feature", "properties": { "seq": 38, "ts": "2026-07-30T08:01:16", "used_base": "base_station_1", "error_m": 0.039522554645995404, "error_raw_m": 0.37897964210980917 }, "geometry": { "type": "Point", "coordinates": [ 105.853828440614933, 21.029121658082303 ] } },
{ "type": "Feature", "properties": { "seq": 39, "ts": "2026-07-30T08:01:18", "used_base": "base_station_1", "error_m": 0.0058801699438068983, "error_raw_m": 0.4815820632928729 }, "geometry": { "type": "Point", "coordinates": [ 105.853819401513434, 21.028982482609671 ] } },
{ "type": "Feature", "properties": { "seq": 40, "ts": "2026-07-30T08:01:20", "used_base": "base_station_1", "error_m": 0.017355192246372057, "error_raw_m": 0.59507965842092891 }, "geometry": { "type": "Point", "coordinates": [ 105.853797566781878, 21.028844405680665 ] } },
{ "type": "Feature", "properties": { "seq": 41, "ts": "2026-07-30T08:01:22", "used_base": "base_station_1", "error_m": 0.048896392207467131, "error_raw_m": 0.51957856972607874 }, "geometry": { "type": "Point", "coordinates": [ 105.853774836095525, 21.028706380286238 ] } },
{ "type": "Feature", "properties": { "seq": 42, "ts": "2026-07-30T08:01:24", "used_base": "base_station_1", "error_m": 0.037352520961894869, "error_raw_m": 0.15741368293946012 }, "geometry": { "type": "Point", "coordinates": [ 105.853750773501687, 21.028568110220128 ] } },
{ "type": "Feature", "properties": { "seq": 43, "ts": "2026-07-30T08:01:26", "used_base": "base_station_1", "error_m": 0.086232614405669886, "error_raw_m": 0.027878146290645164 }, "geometry": { "type": "Point", "coordinates": [ 105.853729028475314, 21.028430249911125 ] } },
{ "type": "Feature", "properties": { "seq": 44, "ts": "2026-07-30T08:01:28", "used_base": "base_station_1", "error_m": 0.051376882965396116, "error_raw_m": 0.19359959947453226 }, "geometry": { "type": "Point", "coordinates": [ 105.853707409695318, 21.028291804897894 ] } },
{ "type": "Feature", "properties": { "seq": 45, "ts": "2026-07-30T08:01:30", "used_base": "base_station_1", "error_m": 0.010416548908144335, "error_raw_m": 0.34748392896173025 }, "geometry": { "type": "Point", "coordinates": [ 105.853686421289026, 21.028153192413662 ] } },
{ "type": "Feature", "properties": { "seq": 46, "ts": "2026-07-30T08:01:32", "used_base": "base_station_1", "error_m": 0.032417175245468832, "error_raw_m": 0.23427174087136174 }, "geometry": { "type": "Point", "coordinates": [ 105.853666628362575, 21.028014613235111 ] } },
{ "type": "Feature", "properties": { "seq": 47, "ts": "2026-07-30T08:01:34", "used_base": "base_station_1", "error_m": 0.020715786863861871, "error_raw_m": 0.46271397815551352 }, "geometry": { "type": "Point", "coordinates": [ 105.85364642412874, 21.027876458619762 ] } },
{ "type": "Feature", "properties": { "seq": 48, "ts": "2026-07-30T08:01:36", "used_base": "base_station_1", "error_m": 0.0094818697166433371, "error_raw_m": 0.93204593805523028 }, "geometry": { "type": "Point", "coordinates": [ 105.853626426071372, 21.027737821675746 ] } },
{ "type": "Feature", "properties": { "seq": 49, "ts": "2026-07-30T08:01:38", "used_base": "base_station_1", "error_m": 0.028343396947486221, "error_raw_m": 1.0653573227665736 }, "geometry": { "type": "Point", "coordinates": [ 105.853606331708491, 21.027599377704171 ] } },
{ "type": "Feature", "properties": { "seq": 50, "ts": "2026-07-30T08:01:40", "used_base": "base_station_1", "error_m": 0.056783700079838573, "error_raw_m": 0.90238305470591507 }, "geometry": { "type": "Point", "coordinates": [ 105.85358335279733, 21.027460777140796 ] } },
{ "type": "Feature", "properties": { "seq": 51, "ts": "2026-07-30T08:01:42", "used_base": "base_station_1", "error_m": 0.022143748598138731, "error_raw_m": 0.88273322125106801 }, "geometry": { "type": "Point", "coordinates": [ 105.853561138615134, 21.027322943294461 ] } },
{ "type": "Feature", "properties": { "seq": 52, "ts": "2026-07-30T08:01:44", "used_base": "base_station_1", "error_m": 0.057450550999326756, "error_raw_m": 1.1080152507105272 }, "geometry": { "type": "Point", "coordinates": [ 105.853539095833284, 21.027185151311265 ] } },
{ "type": "Feature", "properties": { "seq": 53, "ts": "2026-07-30T08:01:46", "used_base": "base_station_1", "error_m": 0.011167327300842704, "error_raw_m": 1.4634514829965186 }, "geometry": { "type": "Point", "coordinates": [ 105.853516030309081, 21.027046694629281 ] } },
{ "type": "Feature", "properties": { "seq": 54, "ts": "2026-07-30T08:01:48", "used_base": "base_station_1", "error_m": 0.031212915214150615, "error_raw_m": 1.5110642319410601 }, "geometry": { "type": "Point", "coordinates": [ 105.853492993747381, 21.026908336886059 ] } },
{ "type": "Feature", "properties": { "seq": 55, "ts": "2026-07-30T08:01:50", "used_base": "base_station_1", "error_m": 0.026252271306778017, "error_raw_m": 1.3565593046343785 }, "geometry": { "type": "Point", "coordinates": [ 105.853469880518233, 21.026770714774255 ] } },
{ "type": "Feature", "properties": { "seq": 56, "ts": "2026-07-30T08:01:52", "used_base": "base_station_1", "error_m": 0.0057483944244709996, "error_raw_m": 1.7657527132916706 }, "geometry": { "type": "Point", "coordinates": [ 105.853446771447764, 21.026632442404335 ] } },
{ "type": "Feature", "properties": { "seq": 57, "ts": "2026-07-30T08:01:54", "used_base": "base_station_1", "error_m": 0.046535813213264374, "error_raw_m": 1.9239359747158762 }, "geometry": { "type": "Point", "coordinates": [ 105.85342228171244, 21.02649471395338 ] } },
{ "type": "Feature", "properties": { "seq": 58, "ts": "2026-07-30T08:01:56", "used_base": "base_station_1", "error_m": 0.011600401994795824, "error_raw_m": 1.8473582126682699 }, "geometry": { "type": "Point", "coordinates": [ 105.853398545429329, 21.026356640238987 ] } },
{ "type": "Feature", "properties": { "seq": 59, "ts": "2026-07-30T08:01:58", "used_base": "base_station_1", "error_m": 0.073313875235666751, "error_raw_m": 1.7233829532781892 }, "geometry": { "type": "Point", "coordinates": [ 105.853375203171396, 21.026218305501217 ] } },
{ "type": "Feature", "properties": { "seq": 60, "ts": "2026-07-30T08:02:00", "used_base": "base_station_1", "error_m": 0.034026407319796712, "error_raw_m": 1.7726287914799324 }, "geometry": { "type": "Point", "coordinates": [ 105.853350407927351, 21.026080996621324 ] } },
{ "type": "Feature", "properties": { "seq": 61, "ts": "2026-07-30T08:02:02", "used_base": "base_station_1", "error_m": 0.068151453095872713, "error_raw_m": 1.3940294490105125 }, "geometry": { "type": "Point", "coordinates": [ 105.853321605122417, 21.025944076290735 ] } },
{ "type": "Feature", "properties": { "seq": 62, "ts": "2026-07-30T08:02:04", "used_base": "base_station_1", "error_m": 0.020623487697845305, "error_raw_m": 1.1544846936636832 }, "geometry": { "type": "Point", "coordinates": [ 105.85329314953654, 21.025806308231175 ] } },
{ "type": "Feature", "properties": { "seq": 63, "ts": "2026-07-30T08:02:06", "used_base": "base_station_1", "error_m": 0.011210949023205774, "error_raw_m": 1.3714169969948529 }, "geometry": { "type": "Point", "coordinates": [ 105.853264522082881, 21.025669318990449 ] } },
{ "type": "Feature", "properties": { "seq": 64, "ts": "2026-07-30T08:02:08", "used_base": "base_station_1", "error_m": 0.074482134941584899, "error_raw_m": 1.6810988708101635 }, "geometry": { "type": "Point", "coordinates": [ 105.853234534040837, 21.025532689902388 ] } },
{ "type": "Feature", "properties": { "seq": 65, "ts": "2026-07-30T08:02:10", "used_base": "base_station_1", "error_m": 0.028917484698974875, "error_raw_m": 2.111505763251841 }, "geometry": { "type": "Point", "coordinates": [ 105.853143169538129, 21.025497777078666 ] } },
{ "type": "Feature", "properties": { "seq": 66, "ts": "2026-07-30T08:02:12", "used_base": "base_station_1", "error_m": 0.053680728436214672, "error_raw_m": 2.1574678480810121 }, "geometry": { "type": "Point", "coordinates": [ 105.8530019363712, 21.025544503845957 ] } },
{ "type": "Feature", "properties": { "seq": 67, "ts": "2026-07-30T08:02:14", "used_base": "base_station_1", "error_m": 0.031710873786986268, "error_raw_m": 2.5323248524557376 }, "geometry": { "type": "Point", "coordinates": [ 105.852859811515501, 21.025587597472814 ] } },
{ "type": "Feature", "properties": { "seq": 68, "ts": "2026-07-30T08:02:16", "used_base": "base_station_1", "error_m": 0.055203192642209818, "error_raw_m": 2.2866753838596563 }, "geometry": { "type": "Point", "coordinates": [ 105.852717119278182, 21.025629387517565 ] } },
{ "type": "Feature", "properties": { "seq": 69, "ts": "2026-07-30T08:02:18", "used_base": "base_station_1", "error_m": 0.032945251102056615, "error_raw_m": 1.2870502817718774 }, "geometry": { "type": "Point", "coordinates": [ 105.852574556732392, 21.025672579253385 ] } },
{ "type": "Feature", "properties": { "seq": 70, "ts": "2026-07-30T08:02:20", "used_base": "base_station_1", "error_m": 0.053494275431142081, "error_raw_m": 1.6336153165378049 }, "geometry": { "type": "Point", "coordinates": [ 105.852431223788045, 21.02571498869322 ] } },
{ "type": "Feature", "properties": { "seq": 71, "ts": "2026-07-30T08:02:22", "used_base": "base_station_1", "error_m": 0.039430762320217735, "error_raw_m": 1.6003812706690479 }, "geometry": { "type": "Point", "coordinates": [ 105.852289430396894, 21.025757752266987 ] } },
{ "type": "Feature", "properties": { "seq": 72, "ts": "2026-07-30T08:02:24", "used_base": "base_station_1", "error_m": 0.013273915259884419, "error_raw_m": 1.7993974440909886 }, "geometry": { "type": "Point", "coordinates": [ 105.852147047550815, 21.025801342707336 ] } },
{ "type": "Feature", "properties": { "seq": 73, "ts": "2026-07-30T08:02:26", "used_base": "base_station_1", "error_m": 0.053510091630737784, "error_raw_m": 1.9212408858442869 }, "geometry": { "type": "Point", "coordinates": [ 105.852004866905915, 21.025845482458703 ] } },
{ "type": "Feature", "properties": { "seq": 74, "ts": "2026-07-30T08:02:28", "used_base": "base_station_1", "error_m": 0.058031586167257163, "error_raw_m": 1.7192041749945421 }, "geometry": { "type": "Point", "coordinates": [ 105.85186256466028, 21.025889254805879 ] } },
{ "type": "Feature", "properties": { "seq": 75, "ts": "2026-07-30T08:02:30", "used_base": "base_station_1", "error_m": 0.041058114514339585, "error_raw_m": 2.1144442900583988 }, "geometry": { "type": "Point", "coordinates": [ 105.851719927581826, 21.025931778002459 ] } },
{ "type": "Feature", "properties": { "seq": 76, "ts": "2026-07-30T08:02:32", "used_base": "base_station_1", "error_m": 0.04890312750872744, "error_raw_m": 2.4066259904933891 }, "geometry": { "type": "Point", "coordinates": [ 105.851682454518496, 21.026043378290399 ] } },
{ "type": "Feature", "properties": { "seq": 77, "ts": "2026-07-30T08:02:34", "used_base": "base_station_1", "error_m": 0.021893191086958575, "error_raw_m": 1.9549879391944842 }, "geometry": { "type": "Point", "coordinates": [ 105.851677992964412, 21.02618254759771 ] } },
{ "type": "Feature", "properties": { "seq": 78, "ts": "2026-07-30T08:02:36", "used_base": "base_station_1", "error_m": 0.036358649851063393, "error_raw_m": 1.7644122950825545 }, "geometry": { "type": "Point", "coordinates": [ 105.85164301999562, 21.026317917356074 ] } },
{ "type": "Feature", "properties": { "seq": 79, "ts": "2026-07-30T08:02:38", "used_base": "base_station_1", "error_m": 0.022862674220584255, "error_raw_m": 2.1252621399104963 }, "geometry": { "type": "Point", "coordinates": [ 105.851607783543756, 21.026453920104011 ] } },
{ "type": "Feature", "properties": { "seq": 80, "ts": "2026-07-30T08:02:40", "used_base": "base_station_1", "error_m": 0.038354384617460505, "error_raw_m": 2.4312753588793412 }, "geometry": { "type": "Point", "coordinates": [ 105.851573149741014, 21.026589960416871 ] } },
{ "type": "Feature", "properties": { "seq": 81, "ts": "2026-07-30T08:02:42", "used_base": "base_station_1", "error_m": 0.02287613480050122, "error_raw_m": 2.3324607693872035 }, "geometry": { "type": "Point", "coordinates": [ 105.851537884722703, 21.026725777450849 ] } },
{ "type": "Feature", "properties": { "seq": 82, "ts": "2026-07-30T08:02:44", "used_base": "base_station_1", "error_m": 0.059639357203224573, "error_raw_m": 2.4880860065658781 }, "geometry": { "type": "Point", "coordinates": [ 105.851501983386768, 21.026861623345223 ] } },
{ "type": "Feature", "properties": { "seq": 83, "ts": "2026-07-30T08:02:46", "used_base": "base_station_1", "error_m": 0.019856369759380009, "error_raw_m": 2.2906991564667885 }, "geometry": { "type": "Point", "coordinates": [ 105.851467474797985, 21.026997330257736 ] } },
{ "type": "Feature", "properties": { "seq": 84, "ts": "2026-07-30T08:02:48", "used_base": "base_station_1", "error_m": 0.024627839117954155, "error_raw_m": 2.3135151290532057 }, "geometry": { "type": "Point", "coordinates": [ 105.851432575061565, 21.027133382767104 ] } },
{ "type": "Feature", "properties": { "seq": 85, "ts": "2026-07-30T08:02:50", "used_base": "base_station_1", "error_m": 0.019865566830617045, "error_raw_m": 2.2294576074956942 }, "geometry": { "type": "Point", "coordinates": [ 105.851397322717247, 21.027269370935084 ] } },
{ "type": "Feature", "properties": { "seq": 86, "ts": "2026-07-30T08:02:52", "used_base": "base_station_1", "error_m": 0.0037970854550135346, "error_raw_m": 2.6402505270834808 }, "geometry": { "type": "Point", "coordinates": [ 105.851362103789199, 21.027405026865988 ] } },
{ "type": "Feature", "properties": { "seq": 87, "ts": "2026-07-30T08:02:54", "used_base": "base_station_1", "error_m": 0.023847402355421387, "error_raw_m": 2.722142550287538 }, "geometry": { "type": "Point", "coordinates": [ 105.851326513021704, 21.027540583722544 ] } },
{ "type": "Feature", "properties": { "seq": 88, "ts": "2026-07-30T08:02:56", "used_base": "base_station_1", "error_m": 0.055009696432308894, "error_raw_m": 2.5110681630615646 }, "geometry": { "type": "Point", "coordinates": [ 105.851291198046141, 21.027676891953764 ] } },
{ "type": "Feature", "properties": { "seq": 89, "ts": "2026-07-30T08:02:58", "used_base": "base_station_1", "error_m": 0.060146855157332327, "error_raw_m": 2.4385303747639369 }, "geometry": { "type": "Point", "coordinates": [ 105.851230832730238, 21.027800038599477 ] } },
{ "type": "Feature", "properties": { "seq": 90, "ts": "2026-07-30T08:03:00", "used_base": "base_station_1", "error_m": 0.055829340645367709, "error_raw_m": 2.2655243446760225 }, "geometry": { "type": "Point", "coordinates": [ 105.851170633593242, 21.027916684429975 ] } },
{ "type": "Feature", "properties": { "seq": 91, "ts": "2026-07-30T08:03:02", "used_base": "base_station_1", "error_m": 0.039905183005762505, "error_raw_m": 2.0154063999750464 }, "geometry": { "type": "Point", "coordinates": [ 105.851198113570348, 21.028053075918049 ] } },
{ "type": "Feature", "properties": { "seq": 92, "ts": "2026-07-30T08:03:04", "used_base": "base_station_1", "error_m": 0.035540542769916826, "error_raw_m": 1.5546763005010549 }, "geometry": { "type": "Point", "coordinates": [ 105.85124135236174, 21.028186758859331 ] } },
{ "type": "Feature", "properties": { "seq": 93, "ts": "2026-07-30T08:03:06", "used_base": "base_station_1", "error_m": 0.025876153708747157, "error_raw_m": 1.8394904001383234 }, "geometry": { "type": "Point", "coordinates": [ 105.851289394004723, 21.028319339806497 ] } },
{ "type": "Feature", "properties": { "seq": 94, "ts": "2026-07-30T08:03:08", "used_base": "base_station_1", "error_m": 0.025786194650528865, "error_raw_m": 1.5069588707691688 }, "geometry": { "type": "Point", "coordinates": [ 105.851326634975663, 21.028454561419736 ] } },
{ "type": "Feature", "properties": { "seq": 95, "ts": "2026-07-30T08:03:10", "used_base": "base_station_1", "error_m": 0.030214574800846619, "error_raw_m": 1.3706711438378525 }, "geometry": { "type": "Point", "coordinates": [ 105.851356512897425, 21.028591696525613 ] } },
{ "type": "Feature", "properties": { "seq": 96, "ts": "2026-07-30T08:03:12", "used_base": "base_station_1", "error_m": 0.03006533987689625, "error_raw_m": 0.97031364998122727 }, "geometry": { "type": "Point", "coordinates": [ 105.851384021074622, 21.028729164550267 ] } },
{ "type": "Feature", "properties": { "seq": 97, "ts": "2026-07-30T08:03:14", "used_base": "base_station_1", "error_m": 0.020602133872038339, "error_raw_m": 1.3864213025944321 }, "geometry": { "type": "Point", "coordinates": [ 105.851400433694877, 21.02886769792385 ] } },
{ "type": "Feature", "properties": { "seq": 98, "ts": "2026-07-30T08:03:16", "used_base": "base_station_1", "error_m": 0.027409356545331012, "error_raw_m": 1.4383457764423353 }, "geometry": { "type": "Point", "coordinates": [ 105.851399095786903, 21.029007022242748 ] } },
{ "type": "Feature", "properties": { "seq": 99, "ts": "2026-07-30T08:03:18", "used_base": "base_station_1", "error_m": 0.054850731027827268, "error_raw_m": 1.4659104578815676 }, "geometry": { "type": "Point", "coordinates": [ 105.851384716289388, 21.029146215104966 ] } },
{ "type": "Feature", "properties": { "seq": 100, "ts": "2026-07-30T08:03:20", "used_base": "base_station_1", "error_m": 0.05907681470770601, "error_raw_m": 0.98327593347378173 }, "geometry": { "type": "Point", "coordinates": [ 105.851357627365289, 21.029284126855796 ] } },
{ "type": "Feature", "properties": { "seq": 101, "ts": "2026-07-30T08:03:22", "used_base": "base_station_1", "error_m": 0.039365915714308787, "error_raw_m": 0.83448758829643332 }, "geometry": { "type": "Point", "coordinates": [ 105.851324486176779, 21.029419959239871 ] } },
{ "type": "Feature", "properties": { "seq": 102, "ts": "2026-07-30T08:03:24", "used_base": "base_station_1", "error_m": 0.0067591810473234945, "error_raw_m": 1.2254565276975569 }, "geometry": { "type": "Point", "coordinates": [ 105.851291902554891, 21.029556318916121 ] } },
{ "type": "Feature", "properties": { "seq": 103, "ts": "2026-07-30T08:03:26", "used_base": "base_station_1", "error_m": 0.040504122245725652, "error_raw_m": 1.6763309311608465 }, "geometry": { "type": "Point", "coordinates": [ 105.851258748792731, 21.029692323106026 ] } },
{ "type": "Feature", "properties": { "seq": 104, "ts": "2026-07-30T08:03:28", "used_base": "base_station_1", "error_m": 0.053997682862057104, "error_raw_m": 1.9047513914809338 }, "geometry": { "type": "Point", "coordinates": [ 105.851226591218008, 21.029828809625684 ] } },
{ "type": "Feature", "properties": { "seq": 105, "ts": "2026-07-30T08:03:30", "used_base": "base_station_1", "error_m": 0.016401349154938492, "error_raw_m": 2.0447968431394572 }, "geometry": { "type": "Point", "coordinates": [ 105.851193223482639, 21.029965109766557 ] } },
{ "type": "Feature", "properties": { "seq": 106, "ts": "2026-07-30T08:03:32", "used_base": "base_station_1", "error_m": 0.044119737146279626, "error_raw_m": 2.1362080694028469 }, "geometry": { "type": "Point", "coordinates": [ 105.851160122186343, 21.030101955260115 ] } },
{ "type": "Feature", "properties": { "seq": 107, "ts": "2026-07-30T08:03:34", "used_base": "base_station_1", "error_m": 0.028620220347173257, "error_raw_m": 1.9501817437766462 }, "geometry": { "type": "Point", "coordinates": [ 105.851127578878504, 21.030237866427861 ] } },
{ "type": "Feature", "properties": { "seq": 108, "ts": "2026-07-30T08:03:36", "used_base": "base_station_1", "error_m": 0.079851123070228486, "error_raw_m": 1.5242918446121274 }, "geometry": { "type": "Point", "coordinates": [ 105.851093217998411, 21.030374629590384 ] } },
{ "type": "Feature", "properties": { "seq": 109, "ts": "2026-07-30T08:03:38", "used_base": "base_station_1", "error_m": 0.041783571101675666, "error_raw_m": 1.758603968756639 }, "geometry": { "type": "Point", "coordinates": [ 105.851057414494051, 21.030509388124074 ] } },
{ "type": "Feature", "properties": { "seq": 110, "ts": "2026-07-30T08:03:40", "used_base": "base_station_1", "error_m": 0.040667648373548214, "error_raw_m": 1.714289678019457 }, "geometry": { "type": "Point", "coordinates": [ 105.851025941422662, 21.030646387848304 ] } },
{ "type": "Feature", "properties": { "seq": 111, "ts": "2026-07-30T08:03:42", "used_base": "base_station_1", "error_m": 0.0056635516681709007, "error_raw_m": 1.9176396875136328 }, "geometry": { "type": "Point", "coordinates": [ 105.850994022529989, 21.030782811604784 ] } },
{ "type": "Feature", "properties": { "seq": 112, "ts": "2026-07-30T08:03:44", "used_base": "base_station_1", "error_m": 0.050305735099283252, "error_raw_m": 1.8621225422696583 }, "geometry": { "type": "Point", "coordinates": [ 105.850962491427339, 21.030919511367813 ] } }
]
}
