{
"type": "FeatureCollection",
"name": "truth_path",
"crs": { "type": "name", "properties": { "name": "urn:ogc:def:crs:OGC:1.3:CRS84" } },
"features": [
{ "type": "Feature", "properties": { "seq": 0, "ts": "2026-07-30T08:00:00" }, "geometry": { "type": "Point", "coordinates": [ 105.850947599999984, 21.0310025 ] } },
{ "type": "Feature", "properties": { "seq": 1, "ts": "2026-07-30T08:00:02" }, "geometry": { "type": "Point", "coordinates": [ 105.850940625703203, 21.031141716854645 ] } },
{ "type": "Feature", "properties": { "seq": 2, "ts": "2026-07-30T08:00:04" }, "geometry": { "type": "Point", "coordinates": [ 105.850958636606876, 21.031279811659843 ] } },
{ "type": "Feature", "properties": { "seq": 3, "ts": "2026-07-30T08:00:06" }, "geometry": { "type": "Point", "coordinates": [ 105.851007012614005, 21.031411628704301 ] } },
{ "type": "Feature", "properties": { "seq": 4, "ts": "2026-07-30T08:00:08" }, "geometry": { "type": "Point", "coordinates": [ 105.851099486286245, 21.031521479959888 ] } },
{ "type": "Feature", "properties": { "seq": 5, "ts": "2026-07-30T08:00:10" }, "geometry": { "type": "Point", "coordinates": [ 105.851198253772978, 21.03162640408657 ] } },
{ "type": "Feature", "properties": { "seq": 6, "ts": "2026-07-30T08:00:12" }, "geometry": { "type": "Point", "coordinates": [ 105.851301056956601, 21.031727998557702 ] } },
{ "type": "Feature", "properties": { "seq": 7, "ts": "2026-07-30T08:00:14" }, "geometry": { "type": "Point", "coordinates": [ 105.851420855875176, 21.031808295639607 ] } },
{ "type": "Feature", "properties": { "seq": 8, "ts": "2026-07-30T08:00:16" }, "geometry": { "type": "Point", "coordinates": [ 105.851558985813767, 21.031861697319435 ] } },
{ "type": "Feature", "properties": { "seq": 9, "ts": "2026-07-30T08:00:18" }, "geometry": { "type": "Point", "coordinates": [ 105.851706430488804, 21.031881296745762 ] } },
{ "type": "Feature", "properties": { "seq": 10, "ts": "2026-07-30T08:00:20" }, "geometry": { "type": "Point", "coordinates": [ 105.851855053486105, 21.031892891043046 ] } },
{ "type": "Feature", "properties": { "seq": 11, "ts": "2026-07-30T08:00:22" }, "geometry": { "type": "Point", "coordinates": [ 105.852003478449447, 21.031875013337849 ] } },
{ "type": "Feature", "properties": { "seq": 12, "ts": "2026-07-30T08:00:24" }, "geometry": { "type": "Point", "coordinates": [ 105.852151793712423, 21.031855926456053 ] } },
{ "type": "Feature", "properties": { "seq": 13, "ts": "2026-07-30T08:00:26" }, "geometry": { "type": "Point", "coordinates": [ 105.852300126118379, 21.031836950095471 ] } },
{ "type": "Feature", "properties": { "seq": 14, "ts": "2026-07-30T08:00:28" }, "geometry": { "type": "Point", "coordinates": [ 105.852448458524307, 21.031817973732469 ] } },
{ "type": "Feature", "properties": { "seq": 15, "ts": "2026-07-30T08:00:30" }, "geometry": { "type": "Point", "coordinates": [ 105.852596794042512, 21.031799018577903 ] } },
{ "type": "Feature", "properties": { "seq": 16, "ts": "2026-07-30T08:00:32" }, "geometry": { "type": "Point", "coordinates": [ 105.8527451307273, 21.031780071371532 ] } },
{ "type": "Feature", "properties": { "seq": 17, "ts": "2026-07-30T08:00:34" }, "geometry": { "type": "Point", "coordinates": [ 105.852893467412102, 21.031761124162749 ] } },
{ "type": "Feature", "properties": { "seq": 18, "ts": "2026-07-30T08:00:36" }, "geometry": { "type": "Point", "coordinates": [ 105.853016094441486, 21.031689052325405 ] } },
{ "type": "Feature", "properties": { "seq": 19, "ts": "2026-07-30T08:00:38" }, "geometry": { "type": "Point", "coordinates": [ 105.853117956515632, 21.03158784760496 ] } },
{ "type": "Feature", "properties": { "seq": 20, "ts": "2026-07-30T08:00:40" }, "geometry": { "type": "Point", "coordinates": [ 105.853198620355499, 21.031470646698974 ] } },
{ "type": "Feature", "properties": { "seq": 21, "ts": "2026-07-30T08:00:42" }, "geometry": { "type": "Point", "coordinates": [ 105.853275114937773, 21.03135051754693 ] } },
{ "type": "Feature", "properties": { "seq": 22, "ts": "2026-07-30T08:00:44" }, "geometry": { "type": "Point", "coordinates": [ 105.853350475077704, 21.031229769344655 ] } },
{ "type": "Feature", "properties": { "seq": 23, "ts": "2026-07-30T08:00:46" }, "geometry": { "type": "Point", "coordinates": [ 105.853424219506792, 21.031108153142 ] } },
{ "type": "Feature", "properties": { "seq": 24, "ts": "2026-07-30T08:00:48" }, "geometry": { "type": "Point", "coordinates": [ 105.853497438712694, 21.030986258524656 ] } },
{ "type": "Feature", "properties": { "seq": 25, "ts": "2026-07-30T08:00:50" }, "geometry": { "type": "Point", "coordinates": [ 105.853570657918596, 21.030864363807598 ] } },
{ "type": "Feature", "properties": { "seq": 26, "ts": "2026-07-30T08:00:52" }, "geometry": { "type": "Point", "coordinates": [ 105.85364641916351, 21.030743941414965 ] } },
{ "type": "Feature", "properties": { "seq": 27, "ts": "2026-07-30T08:00:54" }, "geometry": { "type": "Point", "coordinates": [ 105.853728655572013, 21.030627175306638 ] } },
{ "type": "Feature", "properties": { "seq": 28, "ts": "2026-07-30T08:00:56" }, "geometry": { "type": "Point", "coordinates": [ 105.85380526184025, 21.030507322663041 ] } },
{ "type": "Feature", "properties": { "seq": 29, "ts": "2026-07-30T08:00:58" }, "geometry": { "type": "Point", "coordinates": [ 105.853852868604193, 21.030375250484617 ] } },
{ "type": "Feature", "properties": { "seq": 30, "ts": "2026-07-30T08:01:00" }, "geometry": { "type": "Point", "coordinates": [ 105.853877468182233, 21.030239023081375 ] } },
{ "type": "Feature", "properties": { "seq": 31, "ts": "2026-07-30T08:01:02" }, "geometry": { "type": "Point", "coordinates": [ 105.853871327866941, 21.030099394001464 ] } },
{ "type": "Feature", "properties": { "seq": 32, "ts": "2026-07-30T08:01:04" }, "geometry": { "type": "Point", "coordinates": [ 105.853865187551648, 21.029959764790732 ] } },
{ "type": "Feature", "properties": { "seq": 33, "ts": "2026-07-30T08:01:06" }, "geometry": { "type": "Point", "coordinates": [ 105.853859047236355, 21.029820135449175 ] } },
{ "type": "Feature", "properties": { "seq": 34, "ts": "2026-07-30T08:01:08" }, "geometry": { "type": "Point", "coordinates": [ 105.853852906921048, 21.029680505976799 ] } },
{ "type": "Feature", "properties": { "seq": 35, "ts": "2026-07-30T08:01:10" }, "geometry": { "type": "Point", "coordinates": [ 105.85384676660577, 21.029540876373595 ] } },
{ "type": "Feature", "properties": { "seq": 36, "ts": "2026-07-30T08:01:12" }, "geometry": { "type": "Point", "coordinates": [ 105.853840883075733, 21.02940123706642 ] } },
{ "type": "Feature", "properties": { "seq": 37, "ts": "2026-07-30T08:01:14" }, "geometry": { "type": "Point", "coordinates": [ 105.853835073057539, 21.029261594887814 ] } },
{ "type": "Feature", "properties": { "seq": 38, "ts": "2026-07-30T08:01:16" }, "geometry": { "type": "Point", "coordinates": [ 105.853828318226178, 21.029121996164154 ] } },
{ "type": "Feature", "properties": { "seq": 39, "ts": "2026-07-30T08:01:18" }, "geometry": { "type": "Point", "coordinates": [ 105.853819347870683, 21.028982499515568 ] } },
{ "type": "Feature", "properties": { "seq": 40, "ts": "2026-07-30T08:01:20" }, "geometry": { "type": "Point", "coordinates": [ 105.853797541048394, 21.028844250753629 ] } },
{ "type": "Feature", "properties": { "seq": 41, "ts": "2026-07-30T08:01:22" }, "geometry": { "type": "Point", "coordinates": [ 105.853774415729873, 21.028706181816688 ] } },
{ "type": "Feature", "properties": { "seq": 42, "ts": "2026-07-30T08:01:24" }, "geometry": { "type": "Point", "coordinates": [ 105.853750440458285, 21.028568237153472 ] } },
{ "type": "Feature", "properties": { "seq": 43, "ts": "2026-07-30T08:01:26" }, "geometry": { "type": "Point", "coordinates": [ 105.853728229217069, 21.028430040472198 ] } },
{ "type": "Feature", "properties": { "seq": 44, "ts": "2026-07-30T08:01:28" }, "geometry": { "type": "Point", "coordinates": [ 105.853706924839443, 21.028291714169317 ] } },
{ "type": "Feature", "properties": { "seq": 45, "ts": "2026-07-30T08:01:30" }, "geometry": { "type": "Point", "coordinates": [ 105.853686462998056, 21.028153277990182 ] } },
{ "type": "Feature", "properties": { "seq": 46, "ts": "2026-07-30T08:01:32" }, "geometry": { "type": "Point", "coordinates": [ 105.853666381391221, 21.028014792153474 ] } },
{ "type": "Feature", "properties": { "seq": 47, "ts": "2026-07-30T08:01:34" }, "geometry": { "type": "Point", "coordinates": [ 105.853646310505553, 21.027876304837292 ] } },
{ "type": "Feature", "properties": { "seq": 48, "ts": "2026-07-30T08:01:36" }, "geometry": { "type": "Point", "coordinates": [ 105.853626336536308, 21.027737805181623 ] } },
{ "type": "Feature", "properties": { "seq": 49, "ts": "2026-07-30T08:01:38" }, "geometry": { "type": "Point", "coordinates": [ 105.853606061121596, 21.027599345569165 ] } },
{ "type": "Feature", "properties": { "seq": 50, "ts": "2026-07-30T08:01:40" }, "geometry": { "type": "Point", "coordinates": [ 105.853583714257141, 21.027461161878591 ] } },
{ "type": "Feature", "properties": { "seq": 51, "ts": "2026-07-30T08:01:42" }, "geometry": { "type": "Point", "coordinates": [ 105.853561347916525, 21.02732298082622 ] } },
{ "type": "Feature", "properties": { "seq": 52, "ts": "2026-07-30T08:01:44" }, "geometry": { "type": "Point", "coordinates": [ 105.853538647954664, 21.027184847032188 ] } },
{ "type": "Feature", "properties": { "seq": 53, "ts": "2026-07-30T08:01:46" }, "geometry": { "type": "Point", "coordinates": [ 105.85351592537225, 21.027046716367142 ] } },
{ "type": "Feature", "properties": { "seq": 54, "ts": "2026-07-30T08:01:48" }, "geometry": { "type": "Point", "coordinates": [ 105.853492975174845, 21.026908618347036 ] } },
{ "type": "Feature", "properties": { "seq": 55, "ts": "2026-07-30T08:01:50" }, "geometry": { "type": "Point", "coordinates": [ 105.853470024977426, 21.026770520198983 ] } },
{ "type": "Feature", "properties": { "seq": 56, "ts": "2026-07-30T08:01:52" }, "geometry": { "type": "Point", "coordinates": [ 105.853446727131029, 21.026632473484614 ] } },
{ "type": "Feature", "properties": { "seq": 57, "ts": "2026-07-30T08:01:54" }, "geometry": { "type": "Point", "coordinates": [ 105.853422687735915, 21.026494536625453 ] } },
{ "type": "Feature", "properties": { "seq": 58, "ts": "2026-07-30T08:01:56" }, "geometry": { "type": "Point", "coordinates": [ 105.8533986483408, 21.026356599638646 ] } },
{ "type": "Feature", "properties": { "seq": 59, "ts": "2026-07-30T08:01:58" }, "geometry": { "type": "Point", "coordinates": [ 105.853374608945686, 21.026218662524187 ] } },
{ "type": "Feature", "properties": { "seq": 60, "ts": "2026-07-30T08:02:00" }, "geometry": { "type": "Point", "coordinates": [ 105.853350563754915, 21.02608072624853 ] } },
{ "type": "Feature", "properties": { "seq": 61, "ts": "2026-07-30T08:02:02" }, "geometry": { "type": "Point", "coordinates": [ 105.853321948787041, 21.025943551875908 ] } },
{ "type": "Feature", "properties": { "seq": 62, "ts": "2026-07-30T08:02:04" }, "geometry": { "type": "Point", "coordinates": [ 105.853293333819167, 21.025806377377044 ] } },
{ "type": "Feature", "properties": { "seq": 63, "ts": "2026-07-30T08:02:06" }, "geometry": { "type": "Point", "coordinates": [ 105.85326457382709, 21.025669230114175 ] } },
{ "type": "Feature", "properties": { "seq": 64, "ts": "2026-07-30T08:02:08" }, "geometry": { "type": "Point", "coordinates": [ 105.853233864184332, 21.02553245057295 ] } },
{ "type": "Feature", "properties": { "seq": 65, "ts": "2026-07-30T08:02:10" }, "geometry": { "type": "Point", "coordinates": [ 105.853143068778863, 21.025497533546073 ] } },
{ "type": "Feature", "properties": { "seq": 66, "ts": "2026-07-30T08:02:12" }, "geometry": { "type": "Point", "coordinates": [ 105.853002243658111, 21.025544893689037 ] } },
{ "type": "Feature", "properties": { "seq": 67, "ts": "2026-07-30T08:02:14" }, "geometry": { "type": "Point", "coordinates": [ 105.852859611435079, 21.025587381157635 ] } },
{ "type": "Feature", "properties": { "seq": 68, "ts": "2026-07-30T08:02:16" }, "geometry": { "type": "Point", "coordinates": [ 105.852716979212047, 21.025629868614125 ] } },
{ "type": "Feature", "properties": { "seq": 69, "ts": "2026-07-30T08:02:18" }, "geometry": { "type": "Point", "coordinates": [ 105.852574346989016, 21.0256723560585 ] } },
{ "type": "Feature", "properties": { "seq": 70, "ts": "2026-07-30T08:02:20" }, "geometry": { "type": "Point", "coordinates": [ 105.852431714765999, 21.025714843490771 ] } },
{ "type": "Feature", "properties": { "seq": 71, "ts": "2026-07-30T08:02:22" }, "geometry": { "type": "Point", "coordinates": [ 105.85228914674174, 21.025757515658789 ] } },
{ "type": "Feature", "properties": { "seq": 72, "ts": "2026-07-30T08:02:24" }, "geometry": { "type": "Point", "coordinates": [ 105.852146952278162, 21.02580126282751 ] } },
{ "type": "Feature", "properties": { "seq": 73, "ts": "2026-07-30T08:02:26" }, "geometry": { "type": "Point", "coordinates": [ 105.852004757814555, 21.025845009983389 ] } },
{ "type": "Feature", "properties": { "seq": 74, "ts": "2026-07-30T08:02:28" }, "geometry": { "type": "Point", "coordinates": [ 105.851862554035975, 21.025888730600141 ] } },
{ "type": "Feature", "properties": { "seq": 75, "ts": "2026-07-30T08:02:30" }, "geometry": { "type": "Point", "coordinates": [ 105.851720206209308, 21.025932040999532 ] } },
{ "type": "Feature", "properties": { "seq": 76, "ts": "2026-07-30T08:02:32" }, "geometry": { "type": "Point", "coordinates": [ 105.851682021795838, 21.026043551916 ] } },
{ "type": "Feature", "properties": { "seq": 77, "ts": "2026-07-30T08:02:34" }, "geometry": { "type": "Point", "coordinates": [ 105.851678124937251, 21.026182393418669 ] } },
{ "type": "Feature", "properties": { "seq": 78, "ts": "2026-07-30T08:02:36" }, "geometry": { "type": "Point", "coordinates": [ 105.851643010236486, 21.026318245719427 ] } },
{ "type": "Feature", "properties": { "seq": 79, "ts": "2026-07-30T08:02:38" }, "geometry": { "type": "Point", "coordinates": [ 105.851607895535736, 21.026454097896366 ] } },
{ "type": "Feature", "properties": { "seq": 80, "ts": "2026-07-30T08:02:40" }, "geometry": { "type": "Point", "coordinates": [ 105.851572780834985, 21.026589949949489 ] } },
{ "type": "Feature", "properties": { "seq": 81, "ts": "2026-07-30T08:02:42" }, "geometry": { "type": "Point", "coordinates": [ 105.851537666134234, 21.026725801878793 ] } },
{ "type": "Feature", "properties": { "seq": 82, "ts": "2026-07-30T08:02:44" }, "geometry": { "type": "Point", "coordinates": [ 105.851502556304595, 21.02686165478115 ] } },
{ "type": "Feature", "properties": { "seq": 83, "ts": "2026-07-30T08:02:46" }, "geometry": { "type": "Point", "coordinates": [ 105.851467447768002, 21.026997507850862 ] } },
{ "type": "Feature", "properties": { "seq": 84, "ts": "2026-07-30T08:02:48" }, "geometry": { "type": "Point", "coordinates": [ 105.851432339231408, 21.02713336079675 ] } },
{ "type": "Feature", "properties": { "seq": 85, "ts": "2026-07-30T08:02:50" }, "geometry": { "type": "Point", "coordinates": [ 105.851397230694843, 21.027269213618808 ] } },
{ "type": "Feature", "properties": { "seq": 86, "ts": "2026-07-30T08:02:52" }, "geometry": { "type": "Point", "coordinates": [ 105.851362094327044, 21.027405060001428 ] } },
{ "type": "Feature", "properties": { "seq": 87, "ts": "2026-07-30T08:02:54" }, "geometry": { "type": "Point", "coordinates": [ 105.851326465452004, 21.027540794497764 ] } },
{ "type": "Feature", "properties": { "seq": 88, "ts": "2026-07-30T08:02:56" }, "geometry": { "type": "Point", "coordinates": [ 105.851290836576979, 21.027676528870494 ] } },
{ "type": "Feature", "properties": { "seq": 89, "ts": "2026-07-30T08:02:58" }, "geometry": { "type": "Point", "coordinates": [ 105.851231043913941, 21.027800544546157 ] } },
{ "type": "Feature", "properties": { "seq": 90, "ts": "2026-07-30T08:03:00" }, "geometry": { "type": "Point", "coordinates": [ 105.85117058331376, 21.027916182239977 ] } },
{ "type": "Feature", "properties": { "seq": 91, "ts": "2026-07-30T08:03:02" }, "geometry": { "type": "Point", "coordinates": [ 105.851198442349045, 21.028053262190348 ] } },
{ "type": "Feature", "properties": { "seq": 92, "ts": "2026-07-30T08:03:04" }, "geometry": { "type": "Point", "coordinates": [ 105.851241602537129, 21.028186977796938 ] } },
{ "type": "Feature", "properties": { "seq": 93, "ts": "2026-07-30T08:03:06" }, "geometry": { "type": "Point", "coordinates": [ 105.851289638401227, 21.02831929504827 ] } },
{ "type": "Feature", "properties": { "seq": 94, "ts": "2026-07-30T08:03:08" }, "geometry": { "type": "Point", "coordinates": [ 105.851326407516353, 21.028454654526747 ] } },
{ "type": "Feature", "properties": { "seq": 95, "ts": "2026-07-30T08:03:10" }, "geometry": { "type": "Point", "coordinates": [ 105.85135669914807, 21.028591486906926 ] } },
{ "type": "Feature", "properties": { "seq": 96, "ts": "2026-07-30T08:03:12" }, "geometry": { "type": "Point", "coordinates": [ 105.851383967021576, 21.0287288977005 ] } },
{ "type": "Feature", "properties": { "seq": 97, "ts": "2026-07-30T08:03:14" }, "geometry": { "type": "Point", "coordinates": [ 105.851400531160536, 21.028867535836163 ] } },
{ "type": "Feature", "properties": { "seq": 98, "ts": "2026-07-30T08:03:16" }, "geometry": { "type": "Point", "coordinates": [ 105.851399248697831, 21.029007224017256 ] } },
{ "type": "Feature", "properties": { "seq": 99, "ts": "2026-07-30T08:03:18" }, "geometry": { "type": "Point", "coordinates": [ 105.851385243067142, 21.029146246285649 ] } },
{ "type": "Feature", "properties": { "seq": 100, "ts": "2026-07-30T08:03:20" }, "geometry": { "type": "Point", "coordinates": [ 105.851357791089725, 21.02928361572614 ] } },
{ "type": "Feature", "properties": { "seq": 101, "ts": "2026-07-30T08:03:22" }, "geometry": { "type": "Point", "coordinates": [ 105.851324864535158, 21.029419941775924 ] } },
{ "type": "Feature", "properties": { "seq": 102, "ts": "2026-07-30T08:03:24" }, "geometry": { "type": "Point", "coordinates": [ 105.851291937980562, 21.029556267701015 ] } },
{ "type": "Feature", "properties": { "seq": 103, "ts": "2026-07-30T08:03:26" }, "geometry": { "type": "Point", "coordinates": [ 105.851259011425981, 21.029692593501398 ] } },
{ "type": "Feature", "properties": { "seq": 104, "ts": "2026-07-30T08:03:28" }, "geometry": { "type": "Point", "coordinates": [ 105.851226084871371, 21.029828919177078 ] } },
{ "type": "Feature", "properties": { "seq": 105, "ts": "2026-07-30T08:03:30" }, "geometry": { "type": "Point", "coordinates": [ 105.851193158316804, 21.02996524472805 ] } },
{ "type": "Feature", "properties": { "seq": 106, "ts": "2026-07-30T08:03:32" }, "geometry": { "type": "Point", "coordinates": [ 105.851160231762222, 21.030101570154315 ] } },
{ "type": "Feature", "properties": { "seq": 107, "ts": "2026-07-30T08:03:34" }, "geometry": { "type": "Point", "coordinates": [ 105.85112730520764, 21.030237895455876 ] } },
{ "type": "Feature", "properties": { "seq": 108, "ts": "2026-07-30T08:03:36" }, "geometry": { "type": "Point", "coordinates": [ 105.851093044232968, 21.030373926844483 ] } },
{ "type": "Feature", "properties": { "seq": 109, "ts": "2026-07-30T08:03:38" }, "geometry": { "type": "Point", "coordinates": [ 105.851057634268471, 21.030509704246047 ] } },
{ "type": "Feature", "properties": { "seq": 110, "ts": "2026-07-30T08:03:40" }, "geometry": { "type": "Point", "coordinates": [ 105.851025597031352, 21.030646213345989 ] } },
{ "type": "Feature", "properties": { "seq": 111, "ts": "2026-07-30T08:03:42" }, "geometry": { "type": "Point", "coordinates": [ 105.850993968403699, 21.0307828056193 ] } },
{ "type": "Feature", "properties": { "seq": 112, "ts": "2026-07-30T08:03:44" }, "geometry": { "type": "Point", "coordinates": [ 105.850962975425219, 21.030919520391272 ] } }
]
}
