{
"type": "FeatureCollection",
"name": "water",
"crs": { "type": "name", "properties": { "name": "urn:ogc:def:crs:OGC:1.3:CRS84" } },
"features": [
{ "type": "Feature", "properties": { "element": "relation", "id": 198437 }, "geometry": { "type": "Polygon", "coordinates": [ [ [ 105.852993, 21.030666 ], [ 105.853, 21.030655 ], [ 105.853017, 21.030643 ], [ 105.853042, 21.030636 ], [ 105.85313, 21.030626 ], [ 105.853183, 21.030611 ], [ 105.853229, 21.030574 ], [ 105.853316, 21.030439 ], [ 105.853336, 21.0304 ], [ 105.853342, 21.03036 ], [ 105.853341, 21.0303 ], [ 105.853328, 21.030239 ], [ 105.853315, 21.030182 ], [ 105.853273, 21.030039 ], [ 105.853269, 21.029933 ], [ 105.853294, 21.029816 ], [ 105.853326, 21.029691 ], [ 105.853327, 21.029567 ], [ 105.85332, 21.029423 ], [ 105.853328, 21.029352 ], [ 105.853353, 21.029294 ], [ 105.853431, 21.029191 ], [ 105.853481, 21.029085 ], [ 105.853496, 21.02901 ], [ 105.853537, 21.028889 ], [ 105.853569, 21.028773 ], [ 105.853568, 21.028747 ], [ 105.853525, 21.028455 ], [ 105.853457, 21.027975 ], [ 105.853386, 21.027505 ], [ 105.853308, 21.027068 ], [ 105.853254, 21.026699 ], [ 105.853207, 21.026382 ], [ 105.853166, 21.026165 ], [ 105.853164, 21.026158 ], [ 105.853139, 21.026079 ], [ 105.853088, 21.026031 ], [ 105.853005, 21.025995 ], [ 105.852871, 21.025954 ], [ 105.852723, 21.025953 ], [ 105.85259, 21.025973 ], [ 105.852499, 21.026005 ], [ 105.852425, 21.026065 ], [ 105.852384, 21.026121 ], [ 105.852374, 21.026157 ], [ 105.852336, 21.026191 ], [ 105.85226, 21.026228 ], [ 105.852185, 21.026255 ], [ 105.852055, 21.026375 ], [ 105.852009, 21.026431 ], [ 105.851967, 21.026498 ], [ 105.851895, 21.026659 ], [ 105.851861, 21.026739 ], [ 105.851836, 21.026779 ], [ 105.851813, 21.026816 ], [ 105.851773, 21.02688 ], [ 105.851732, 21.026954 ], [ 105.851699, 21.027012 ], [ 105.851674, 21.027077 ], [ 105.851662, 21.027131 ], [ 105.851646, 21.027264 ], [ 105.851625, 21.027353 ], [ 105.851605, 21.027409 ], [ 105.851586, 21.027451 ], [ 105.851546, 21.027662 ], [ 105.851525, 21.027816 ], [ 105.851495, 21.027972 ], [ 105.851465, 21.028064 ], [ 105.851464, 21.028078 ], [ 105.851457, 21.028149 ], [ 105.851464, 21.028304 ], [ 105.851491, 21.028587 ], [ 105.851511, 21.028772 ], [ 105.851528, 21.02892 ], [ 105.851535, 21.028991 ], [ 105.851534, 21.029134 ], [ 105.85153, 21.029228 ], [ 105.851475, 21.029509 ], [ 105.851438, 21.029721 ], [ 105.85141, 21.029969 ], [ 105.85136, 21.030304 ], [ 105.851234, 21.030747 ], [ 105.851206, 21.030869 ], [ 105.85118, 21.030993 ], [ 105.851173, 21.031059 ], [ 105.851187, 21.031153 ], [ 105.851216, 21.031233 ], [ 105.851257, 21.031308 ], [ 105.85132, 21.031398 ], [ 105.851414, 21.031505 ], [ 105.851475, 21.031573 ], [ 105.851529, 21.03161 ], [ 105.851571, 21.031627 ], [ 105.851645, 21.031644 ], [ 105.851825, 21.03164 ], [ 105.852027, 21.031626 ], [ 105.85228, 21.031603 ], [ 105.852638, 21.031558 ], [ 105.852801, 21.031526 ], [ 105.852907, 21.031472 ], [ 105.853, 21.031407 ], [ 105.853055, 21.031346 ], [ 105.853127, 21.031224 ], [ 105.853153, 21.031166 ], [ 105.853172, 21.031106 ], [ 105.853195, 21.03102 ], [ 105.853199, 21.030983 ], [ 105.853196, 21.030946 ], [ 105.853176, 21.030909 ], [ 105.853144, 21.03088 ], [ 105.853105, 21.030855 ], [ 105.853027, 21.030829 ], [ 105.853003, 21.030811 ], [ 105.852992, 21.030786 ], [ 105.852991, 21.030769 ], [ 105.852988, 21.030732 ], [ 105.852987, 21.030725 ], [ 105.85299, 21.030678 ], [ 105.852993, 21.030666 ] ], [ [ 105.852233, 21.027983 ], [ 105.852201, 21.027965 ], [ 105.852188, 21.027939 ], [ 105.852185, 21.027793 ], [ 105.852202, 21.027756 ], [ 105.852244, 21.027746 ], [ 105.852358, 21.027752 ], [ 105.852381, 21.027764 ], [ 105.852398, 21.027789 ], [ 105.852397, 21.027933 ], [ 105.852375, 21.027966 ], [ 105.852332, 21.027982 ], [ 105.852302, 21.027982 ], [ 105.852292, 21.027963 ], [ 105.852283, 21.027958 ], [ 105.852274, 21.027964 ], [ 105.852267, 21.027983 ], [ 105.852233, 21.027983 ] ], [ [ 105.852199, 21.0306 ], [ 105.85224, 21.03056 ], [ 105.852289, 21.030519 ], [ 105.852337, 21.030493 ], [ 105.85235, 21.030411 ], [ 105.852424, 21.030422 ], [ 105.852427, 21.03041 ], [ 105.852443, 21.030412 ], [ 105.852441, 21.030425 ], [ 105.852526, 21.030438 ], [ 105.852511, 21.030529 ], [ 105.852549, 21.030585 ], [ 105.852581, 21.030633 ], [ 105.852595, 21.030681 ], [ 105.852598, 21.030721 ], [ 105.852599, 21.030756 ], [ 105.852598, 21.030769 ], [ 105.852596, 21.030788 ], [ 105.852596, 21.030804 ], [ 105.852592, 21.030818 ], [ 105.852581, 21.030836 ], [ 105.852554, 21.030872 ], [ 105.852526, 21.030886 ], [ 105.852484, 21.030901 ], [ 105.85244, 21.030905 ], [ 105.852399, 21.030898 ], [ 105.852316, 21.030884 ], [ 105.852254, 21.030859 ], [ 105.852227, 21.030842 ], [ 105.852208, 21.030819 ], [ 105.852189, 21.030782 ], [ 105.852179, 21.030755 ], [ 105.852175, 21.030689 ], [ 105.852181, 21.030649 ], [ 105.852199, 21.0306 ] ] ] } },
{ "type": "Feature", "properties": { "element": "way", "id": 37933054 }, "geometry": { "type": "Polygon", "coordinates": [ [ [ 105.858213, 21.023324 ], [ 105.858278, 21.023347 ], [ 105.858231, 21.023461 ], [ 105.858166, 21.023438 ], [ 105.858213, 21.023324 ] ] ] } },
{ "type": "Feature", "properties": { "element": "way", "id": 1233322872 }, "geometry": { "type": "Polygon", "coordinates": [ [ [ 105.855987, 21.02636 ], [ 105.855999, 21.026361 ], [ 105.856011, 21.026366 ], [ 105.85602, 21.026374 ], [ 105.856026, 21.026385 ], [ 105.856028, 21.026397 ], [ 105.856025, 21.026408 ], [ 105.856019, 21.026418 ], [ 105.85601, 21.026425 ], [ 105.855999, 21.02643 ], [ 105.855987, 21.026431 ], [ 105.855975, 21.026428 ], [ 105.855965, 21.026422 ], [ 105.855958, 21.026413 ], [ 105.855953, 21.026403 ], [ 105.855953, 21.026391 ], [ 105.855956, 21.02638 ], [ 105.855964, 21.02637 ], [ 105.855974, 21.026364 ], [ 105.855987, 21.02636 ] ] ] } }
]
}
